NPI,ProviderName,Address1,Address2,City,State,Zip,DataGenesis,DataType
1817398960,Ophtalmology Health Center,65 Hoepker Parkway SE,,Washington,D.C.,20290,Noisy,Provider
2525942599,DC Health Practice,042 Graedel Alley NW,UNIT 926,Washington,D.C.,20556,Noisy,Provider
2867882669,Internal Medicine Wellness Practice,14 Continental Alley NW,,Washington,D.C.,20230,Noisy,Provider
1528997797,Dr. Derwin McIver,78268 Eagle Crest Park NE,SUITE 946,Washington,D.C.,20083,Noisy,Provider
2777193110,Physical Medicine and Rehabilitation Wellness Clinic,05 Helena Point SE,SUITE 205,Washington,D.C.,20592,Noisy,Provider
1018493702,Dr. Rochella Yukhnini,3760 Gateway Plaza SE,UNIT 261,Washington,D.C.,20375,Noisy,Provider
1085601728,Dental Healthcare Associates,82715 Cascade Hill SE,UNIT 849,Washington,D.C.,20114,Noisy,Provider
1879008081,Dr. Shea Simonyi,5719 Dovetail Hill SW,,Washington,D.C.,20455,Noisy,Provider
2107071811,Dr. Hannis Gummery,1680 Northridge Drive NE,UNIT 512,Washington,D.C.,20379,Noisy,Provider
1173953828,Dr. Gerome Seivwright,22 Vahlen Parkway NW,SUITE 818,Washington,D.C.,20042,Noisy,Provider
2374300175,Dr. Garrik Works,4 Bluejay Circle NW,,Washington,D.C.,20198,Noisy,Provider
2303217404,Orthopaedic Healthcare Practice,768 Gateway Lane SW,,Washington,D.C.,20585,Noisy,Provider
2283062518,Psychiatric Medical Practice,8109 Waywood Place NW,,Washington,D.C.,20234,Noisy,Provider
2265005859,Allergy and Immunology Healthcare Group,8 West Parkway NW,SUITE 454,Washington,D.C.,20583,Noisy,Provider
1581560652,Dr. Flor Pogson,47385 Elka Lane NW,UNIT 765,Washington,D.C.,20096,Noisy,Provider
1327732647,Dr. Josephine McCafferty,9314 5th Hill SE,,Washington,D.C.,20182,Noisy,Provider
1214955140,Dr. Diahann Stoop,3707 Sachtjen Drive NE,,Washington,D.C.,20022,Noisy,Provider
1173434577,Dr. Loydie Yandle,91178 Susan Place SW,UNIT 685,Washington,D.C.,20365,Noisy,Provider
2402879641,Dr. Torey Pouton,38 Sugar Park NE,,Washington,D.C.,20545,Noisy,Provider
2141027533,Dr. Naomi Gibling,42030 Transport Place SW,SUITE 356,Washington,D.C.,20549,Noisy,Provider
2292387037,DC Physician Practice,88327 Montana Court NE,,Washington,D.C.,20525,Noisy,Provider
1513476213,Dr. Stevie Viles,65 Katie Point NW,SUITE 323,Washington,D.C.,20396,Noisy,Provider
2747742614,Dr. Georg Caress,25 West Place SE,,Washington,D.C.,20112,Noisy,Provider
1900020073,Dr. Charo Dunnaway,2764 Iowa Junction NE,SUITE 368,Washington,D.C.,20564,Noisy,Provider
2637980735,Dr. Merrill Ivanyushin,839 Corscot Avenue SE,SUITE 272,Washington,D.C.,20095,Noisy,Provider
2047646400,Dr. Brittne Colley,64 Reindahl Junction SW,,Washington,D.C.,20044,Noisy,Provider
2536050724,Dr. Loella Remington,2 Kennedy Lane NE,SUITE 685,Washington,D.C.,20576,Noisy,Provider
1251486319,Dental Healthcare Associates,3356 Corben Alley NE,,Washington,D.C.,20253,Noisy,Provider
1794634850,Urgent Care Medical Associates,9745 Brentwood Park SW,UNIT 686,Washington,D.C.,20569,Noisy,Provider
2133582779,Dr. Kimberlee Sowter,3316 Trailsway Trail SW,,Washington,D.C.,20555,Noisy,Provider
1934031349,Internal Medicine Healthcare Clinic,1 International Point SW,,Washington,D.C.,20013,Noisy,Provider
2080779484,Dr. Loraine Boggs,7944 American Ash Street SE,SUITE 207,Washington,D.C.,20385,Noisy,Provider
1381204694,Dr. Chickie Rickett,882 Nova Road SE,,Washington,D.C.,20014,Noisy,Provider
1197800048,Dr. Corinna Hullin,2 Morrow Place NE,UNIT 951,Washington,D.C.,20154,Noisy,Provider
2716182787,Dr. Calvin Cordy,6 Banding Park NW,,Washington,D.C.,20183,Noisy,Provider
1306752936,Dr. Ronny Traylen,715 Cody Plaza NE,UNIT 696,Washington,D.C.,20066,Noisy,Provider
1902238604,Preventive Care Healthcare Center,5391 Welch Trail NE,,Washington,D.C.,20074,Noisy,Provider
1233800738,Preventive Care Medical Group,7563 Garrison Alley SW,,Washington,D.C.,20231,Noisy,Provider
1296295152,Dermatology Healthcare Associates,264 Sunnyside Street NE,,Washington,D.C.,20504,Noisy,Provider
1308781854,Ophtalmology Medical Associates,76677 Sunnyside Pass NE,,Washington,D.C.,20290,Noisy,Provider
2799110274,Psychiatric Health Center,6 Helena Drive NE,UNIT 471,Washington,D.C.,20009,Noisy,Provider
2427928402,Neurological Wellness Practice,89 Mockingbird Street NW,UNIT 902,Washington,D.C.,20479,Noisy,Provider
1090036462,DC Wellness Group,0737 Bartillon Circle SE,,Washington,D.C.,20556,Noisy,Provider
1251113604,Neurological Medical Associates,34608 Kinsman Trail NW,UNIT 445,Washington,D.C.,20033,Noisy,Provider
2452995451,Dr. Fairleigh Martyn,69 Bayside Lane NW,SUITE 976,Washington,D.C.,20562,Noisy,Provider
2296684027,Dr. Jesse McAvin,94 Gulseth Court SE,SUITE 589,Washington,D.C.,20311,Noisy,Provider
1750814806,Dr. Jone Reubel,18321 Thierer Lane NE,SUITE 486,Washington,D.C.,20060,Noisy,Provider
2922038907,DC Medical Clinic,0931 Delladonna Circle NW,,Washington,D.C.,20306,Noisy,Provider
1148327800,Dr. Steven Chaloner,00 Oriole Alley SE,,Washington,D.C.,20366,Noisy,Provider
1144369952,Dr. Antonella Rehorek,49699 Melvin Circle SW,UNIT 443,Washington,D.C.,20027,Noisy,Provider
2403001466,Colon and Rectal Medical Center,41 Harbort Circle NW,,Washington,D.C.,20214,Noisy,Provider
1861544287,Dr. Hildagard Maciejak,186 Elmside Plaza SW,,Washington,D.C.,20373,Noisy,Provider
1506394922,DC Health Center,72 4th Place NE,,Washington,D.C.,20334,Noisy,Provider
1664581664,Psychiatric Physician Group,62619 American Ash Street NW,UNIT 749,Washington,D.C.,20346,Noisy,Provider
1410742476,Family Healthcare Practice,30 Linden Junction SW,UNIT 895,Washington,D.C.,20003,Noisy,Provider
1029530068,Dr. Karee Duffan,09 Sutteridge Road SE,SUITE 648,Washington,D.C.,20223,Noisy,Provider
1534795160,Dr. Tiebold Scriver,281 Cordelia Lane NW,SUITE 897,Washington,D.C.,20198,Noisy,Provider
1569996669,Dr. Baudoin Allom,105 Comanche Hill NW,SUITE 696,Washington,D.C.,20444,Noisy,Provider
2535184984,Dr. Nannette Conduit,081 Hovde Pass NE,,Washington,D.C.,20243,Noisy,Provider
1622325381,Dr. Neill Howe,91 Village Trail NW,,Washington,D.C.,20274,Noisy,Provider
1736782223,Psychiatric Wellness Clinic,6 Crownhardt Street NE,UNIT 397,Washington,D.C.,20037,Noisy,Provider
2594870089,Psychiatric Physician Clinic,103 Huxley Court SW,UNIT 409,Washington,D.C.,20056,Noisy,Provider
1513513899,Dr. Stacy Admans,74 Manitowish Circle NW,UNIT 520,Washington,D.C.,20351,Noisy,Provider
2477507196,Dr. Renee Caplan,0 Morningstar Junction NE,,Washington,D.C.,20031,Noisy,Provider
2191489205,Dr. Clywd Alberts,34772 Lakewood Gardens Place SE,SUITE 676,Washington,D.C.,20298,Noisy,Provider
2383901240,Dr. Nilson Goodinson,198 Glacier Hill Alley NW,UNIT 938,Washington,D.C.,20432,Noisy,Provider
1055170678,Colon and Rectal Wellness Associates,184 East Parkway NW,SUITE 148,Washington,D.C.,20413,Noisy,Provider
2543513213,Dr. Jayne Dunlea,4387 Maryland Crossing NE,UNIT 142,Washington,D.C.,20446,Noisy,Provider
2951758347,DC Medical Associates,9714 Warner Plaza SW,,Washington,D.C.,20203,Noisy,Provider
2834880286,Dr. Jamesy Ruckman,5 Ilene Road SE,,Washington,D.C.,20287,Noisy,Provider
1170416484,Allergy and Immunology Wellness Center,168 Summer Ridge Avenue NE,,Washington,D.C.,20035,Noisy,Provider
2248277332,Dr. Alfy Pyle,753 Homewood Avenue NE,,Washington,D.C.,20430,Noisy,Provider
2975751917,Urgent Care Wellness Group,561 Pleasure Crossing NW,,Washington,D.C.,20592,Noisy,Provider
1907333846,Dr. Beverly Davidi,30335 Nancy Drive SW,UNIT 665,Washington,D.C.,20349,Noisy,Provider
1114455022,Dermatology Physician Associates,3 Forest Dale Terrace NW,,Washington,D.C.,20243,Noisy,Provider
2584020289,Dr. Danni McIvor,0 Victoria Place NE,SUITE 241,Washington,D.C.,20014,Noisy,Provider
2867349240,Dr. Coralyn Yair,96881 Warner Center NW,UNIT 492,Washington,D.C.,20095,Noisy,Provider
2915010663,DC Healthcare Associates,31966 Springs Parkway SW,SUITE 780,Washington,D.C.,20495,Noisy,Provider
1049203163,Dr. Amberly Traviss,0 Lukken Park NE,,Washington,D.C.,20433,Noisy,Provider
1218590566,DC Health Clinic,42 Main Pass NE,,Washington,D.C.,20027,Noisy,Provider
1120707947,Neurological Health Practice,79069 Schurz Alley NE,,Washington,D.C.,20267,Noisy,Provider
2684589248,Family Healthcare Practice,20 Farmco Drive SE,,Washington,D.C.,20339,Noisy,Provider
2405239038,Colon and Rectal Health Group,26 Westport Center SW,UNIT 205,Washington,D.C.,20028,Noisy,Provider
1093658547,Dr. Knox O'Shiel,85 Warner Way SW,UNIT 798,Washington,D.C.,20151,Noisy,Provider
1365752288,Physical Medicine and Rehabilitation Healthcare Associates,84 Hanson Parkway SE,,Washington,D.C.,20571,Noisy,Provider
2485261545,Allergy and Immunology Health Group,66 Riverside Plaza SE,SUITE 291,Washington,D.C.,20584,Noisy,Provider
2882036055,Dermatology Medical Practice,2 Melrose Point SE,UNIT 644,Washington,D.C.,20361,Noisy,Provider
2065721478,Dermatology Medical Associates,32277 Valley Edge Court SE,SUITE 757,Washington,D.C.,20494,Noisy,Provider
2946736801,Dr. Kali Batts,67 Jenna Trail NE,,Washington,D.C.,20365,Noisy,Provider
1291908905,Dr. Adler Hinchshaw,981 Hoard Lane NW,,Washington,D.C.,20550,Noisy,Provider
2128980022,Dr. Ludovika Paxeford,133 Nancy Park SE,,Washington,D.C.,20552,Noisy,Provider
1082566768,Dr. Earle Ruzek,8999 Darwin Circle SW,UNIT 220,Washington,D.C.,20362,Noisy,Provider
1681964051,Dr. Odie Abramovitz,53288 Ramsey Trail NE,,Washington,D.C.,20167,Noisy,Provider
2327163766,Dr. Rex Tyrone,1704 Del Mar Way NW,,Washington,D.C.,20558,Noisy,Provider
2987519459,Dr. Marsh Spuner,3683 Nobel Drive SW,UNIT 366,Washington,D.C.,20483,Noisy,Provider
2828913396,Dr. Niccolo Deesly,43 Sunbrook Way NE,SUITE 137,Washington,D.C.,20160,Noisy,Provider
2877215952,Dr. Katie Grishakin,5206 Elmside Point NW,,Washington,D.C.,20213,Noisy,Provider
2266526827,Dr. Shirleen Kirkman,88 Bonner Point SW,,Washington,D.C.,20507,Noisy,Provider
2861399862,Preventive Care Physician Group,3584 Mockingbird Parkway NE,,Washington,D.C.,20121,Noisy,Provider
2390298412,Dr. Aundrea Bruhn,3 Kim Circle NE,SUITE 165,Washington,D.C.,20344,Noisy,Provider
1055269490,Dental Healthcare Associates,67 Kropf Park NE,UNIT 568,Washington,D.C.,20062,Noisy,Provider
1128784664,Internal Medicine Medical Group,2830 Lien Pass SE,UNIT 684,Washington,D.C.,20217,Noisy,Provider
1114893591,Dr. Theodoric Bernardeau,962 Washington Way SW,,Washington,D.C.,20260,Noisy,Provider
2232654735,Dental Medical Practice,2 Forest Run Terrace NE,UNIT 676,Washington,D.C.,20569,Noisy,Provider
1501563670,Preventive Care Health Clinic,0167 Waxwing Plaza NE,SUITE 457,Washington,D.C.,20599,Noisy,Provider
1647181012,Dr. Reeta Cordelette,95 Pine View Center NW,,Washington,D.C.,20497,Noisy,Provider
1947850047,Physical Medicine and Rehabilitation Health Center,47719 Sauthoff Lane NW,SUITE 970,Washington,D.C.,20554,Noisy,Provider
1583013658,Dr. Sutton Shawdforth,4711 Fieldstone Street NE,SUITE 887,Washington,D.C.,20518,Noisy,Provider
2406180270,Dr. Niles Alaway,310 Logan Street NW,UNIT 557,Washington,D.C.,20024,Noisy,Provider
1580567133,Dr. Sigfried Dorrity,007 Hazelcrest Parkway SW,SUITE 825,Washington,D.C.,20017,Noisy,Provider
2802992908,Dr. Devan Giotto,3 Forest Point NE,UNIT 428,Washington,D.C.,20262,Noisy,Provider
2742781194,Dr. Erminie Endley,2394 Paget Court NE,SUITE 594,Washington,D.C.,20468,Noisy,Provider
2127186484,Dr. Samaria Yannikov,07 Havey Drive NE,,Washington,D.C.,20446,Noisy,Provider
2474327905,Dr. Euphemia Casaccio,14521 Vahlen Junction SW,SUITE 178,Washington,D.C.,20532,Noisy,Provider
2592800627,Psychiatric Medical Group,19862 Shelley Road SW,,Washington,D.C.,20112,Noisy,Provider
1472031503,Dr. Colette Dacombe,5 Glendale Avenue SE,,Washington,D.C.,20008,Noisy,Provider
1139035050,Dr. Sarge Boxhill,0 Alpine Crossing NE,,Washington,D.C.,20163,Noisy,Provider
2634460608,Family Health Clinic,500 Dakota Circle NE,SUITE 324,Washington,D.C.,20182,Noisy,Provider
2701980104,Internal Medicine Health Clinic,643 Valley Edge Street NW,UNIT 608,Washington,D.C.,20546,Noisy,Provider
1483211805,Allergy and Immunology Medical Clinic,27220 Transport Lane SE,,Washington,D.C.,20034,Noisy,Provider
1245163855,Dr. Barny Oxshott,0737 Superior Place NE,,Washington,D.C.,20272,Noisy,Provider
2953873953,Internal Medicine Physician Clinic,4077 Center Junction SE,UNIT 143,Washington,D.C.,20452,Noisy,Provider
2120157850,Dr. Christa Bastock,5846 Hansons Park NE,,Washington,D.C.,20175,Noisy,Provider
1878778020,Dr. Bernette Klimsch,7670 Northwestern Plaza SW,UNIT 410,Washington,D.C.,20413,Noisy,Provider
1787440355,Physical Medicine and Rehabilitation Medical Center,366 Cottonwood Park NE,,Washington,D.C.,20186,Noisy,Provider
1657377343,Family Wellness Practice,4 Thackeray Pass SE,,Washington,D.C.,20095,Noisy,Provider
1945017183,Dr. Krissy Pfeifer,2909 Ridgeview Terrace NW,,Washington,D.C.,20386,Noisy,Provider
1717011200,Dr. Murdock Bemrose,6 Clyde Gallagher Street NE,UNIT 598,Washington,D.C.,20152,Noisy,Provider
2809105757,Dr. Cyndy Kitchingham,642 Mcbride Trail NW,UNIT 432,Washington,D.C.,20414,Noisy,Provider
2368425265,Dr. Robinson Findlater,2 Pepper Wood Place NW,,Washington,D.C.,20504,Noisy,Provider
2872447885,DC Wellness Associates,7009 Oak Valley Park SE,,Washington,D.C.,20270,Noisy,Provider
1130266763,Physical Medicine and Rehabilitation Healthcare Group,55 Havey Drive NW,,Washington,D.C.,20234,Noisy,Provider
2093010337,Internal Medicine Healthcare Associates,6404 Cottonwood Pass SW,UNIT 703,Washington,D.C.,20460,Noisy,Provider
2073159550,Psychiatric Healthcare Associates,3 Spenser Parkway NW,SUITE 790,Washington,D.C.,20348,Noisy,Provider
2119827872,Neurological Physician Associates,2086 Pond Alley SW,UNIT 383,Washington,D.C.,20257,Noisy,Provider
1386572540,Physical Medicine and Rehabilitation Health Clinic,24 Mosinee Lane NW,SUITE 973,Washington,D.C.,20539,Noisy,Provider
2720522500,Physical Medicine and Rehabilitation Healthcare Practice,88266 Grayhawk Circle SE,,Washington,D.C.,20072,Noisy,Provider
2676991296,Ophtalmology Physician Practice,5495 Morning Road SW,,Washington,D.C.,20362,Noisy,Provider
2503480581,Urgent Care Physician Practice,816 Troy Place SE,,Washington,D.C.,20013,Noisy,Provider
1061744645,Dr. Kassia Berlin,36287 Caliangt Lane SW,UNIT 269,Washington,D.C.,20532,Noisy,Provider
2445456152,Dermatology Health Group,3860 Ryan Place NW,UNIT 615,Washington,D.C.,20357,Noisy,Provider
2046379038,Internal Medicine Health Practice,2 Myrtle Hill NW,,Washington,D.C.,20213,Noisy,Provider
1457099000,Dental Healthcare Clinic,8 Briar Crest Parkway NE,SUITE 512,Washington,D.C.,20305,Noisy,Provider
1934844812,Dr. Rasia Pellatt,15 Talmadge Plaza NW,SUITE 537,Washington,D.C.,20550,Noisy,Provider
2101209616,Dr. Lorrie Caveney,752 Sherman Park SW,UNIT 326,Washington,D.C.,20318,Noisy,Provider
2564386778,Dr. Guillermo Keattch,7819 Stuart Plaza NW,,Washington,D.C.,20276,Noisy,Provider
2116071565,Dr. Nonie Frotton,75 Saint Paul Court NW,,Washington,D.C.,20119,Noisy,Provider
2612142073,Urgent Care Wellness Center,0 2nd Point SW,SUITE 605,Washington,D.C.,20212,Noisy,Provider
1741832104,Dr. Dayle Gallgher,327 Ruskin Avenue SE,UNIT 539,Washington,D.C.,20124,Noisy,Provider
1594886009,Dr. Jsandye McGowan,57 Buena Vista Junction NE,SUITE 698,Washington,D.C.,20553,Noisy,Provider
2702674799,Dermatology Wellness Associates,61 Old Gate Court NE,UNIT 833,Washington,D.C.,20299,Noisy,Provider
2242532973,Dr. Annadiane Crossland,5894 Sutteridge Road NW,,Washington,D.C.,20204,Noisy,Provider
2776954301,Neurological Physician Clinic,100 Bobwhite Lane NW,UNIT 272,Washington,D.C.,20492,Noisy,Provider
1316582287,Dr. Ilyssa Josum,2 Nevada Avenue SE,SUITE 501,Washington,D.C.,20132,Noisy,Provider
1161010605,Dr. Sheelah Bowgen,683 Portage Way SE,SUITE 938,Washington,D.C.,20368,Noisy,Provider
2797745443,Dr. Goober Balkwill,7018 Mayer Hill NE,UNIT 173,Washington,D.C.,20089,Noisy,Provider
2142798196,Neurological Healthcare Practice,39 Di Loreto Place SE,,Washington,D.C.,20421,Noisy,Provider
1033838172,Allergy and Immunology Physician Practice,4616 Dunning Avenue SE,SUITE 804,Washington,D.C.,20474,Noisy,Provider
1942429631,Dr. Bobbe Wallbank,0 Upham Plaza NE,SUITE 314,Washington,D.C.,20474,Noisy,Provider
1799509036,Preventive Care Physician Center,33940 Ridgeview Alley SE,UNIT 415,Washington,D.C.,20575,Noisy,Provider
1365055507,Dr. Glynnis Chetwind,6 Bartillon Point NE,UNIT 769,Washington,D.C.,20273,Noisy,Provider
2068395593,Dr. Deonne Jencey,59165 Tennessee Trail SW,,Washington,D.C.,20285,Noisy,Provider
1339069918,Dr. Gennifer Gewer,05 Chive Avenue SW,UNIT 857,Washington,D.C.,20266,Noisy,Provider
2164056958,Dr. Dell Chauvey,790 Buhler Crossing SW,UNIT 994,Washington,D.C.,20368,Noisy,Provider
2532391074,Dr. Papagena Lyst,35810 Lerdahl Avenue SW,,Washington,D.C.,20267,Noisy,Provider
2081911345,Urgent Care Healthcare Center,3896 Dixon Center SW,,Washington,D.C.,20462,Noisy,Provider
2386095114,DC Physician Group,31037 Sachs Terrace NW,UNIT 132,Washington,D.C.,20459,Noisy,Provider
2547363821,Dental Medical Practice,6 Talisman Junction NW,SUITE 579,Washington,D.C.,20586,Noisy,Provider
2550595223,Urgent Care Health Clinic,11537 Colorado Junction SE,SUITE 663,Washington,D.C.,20372,Noisy,Provider
1477857397,Dr. Ara Haddow,90333 Annamark Place SW,SUITE 331,Washington,D.C.,20263,Noisy,Provider
1164974968,Dr. Friedrich Osgarby,92 Armistice Trail SE,SUITE 599,Washington,D.C.,20255,Noisy,Provider
2369193805,Dr. Gasparo Brient,04583 Erie Avenue NE,,Washington,D.C.,20364,Noisy,Provider
2795087819,Internal Medicine Medical Center,8 Myrtle Alley SW,,Washington,D.C.,20538,Noisy,Provider
1306484978,Dr. Ethelind Ide,021 Killdeer Circle SE,UNIT 648,Washington,D.C.,20414,Noisy,Provider
1390431650,Dental Medical Center,029 Hagan Parkway SW,SUITE 137,Washington,D.C.,20106,Noisy,Provider
2118928953,Dr. Auguste Cork,8848 Golf View Point NE,UNIT 287,Washington,D.C.,20565,Noisy,Provider
1687349801,Neurological Physician Practice,68928 Jana Hill SW,UNIT 578,Washington,D.C.,20325,Noisy,Provider
1121827177,Ophtalmology Wellness Practice,144 Garrison Terrace NW,,Washington,D.C.,20552,Noisy,Provider
1471484946,Dr. Salim Westberg,81 Heffernan Junction NE,UNIT 184,Washington,D.C.,20001,Noisy,Provider
2855557798,Dr. Kimberly Falkous,73 Mariners Cove Drive NW,SUITE 303,Washington,D.C.,20508,Noisy,Provider
1494307606,Psychiatric Health Group,74315 Tennyson Junction NE,SUITE 767,Washington,D.C.,20079,Noisy,Provider
1662815130,Dr. Corie Seton,9 Rusk Plaza NW,,Washington,D.C.,20560,Noisy,Provider
1290857590,Dr. Doralynn De Blase,78 Eastwood Hill SW,,Washington,D.C.,20168,Noisy,Provider
1868053727,Dr. Boothe Ivens,924 Sunfield Plaza NW,SUITE 964,Washington,D.C.,20366,Noisy,Provider
1664180301,Dr. Devon Hevey,47 Northview Avenue NE,UNIT 413,Washington,D.C.,20305,Noisy,Provider
2927443141,Dr. Marlyn Battram,45837 Gateway Place NW,,Washington,D.C.,20533,Noisy,Provider
1208724623,Dr. Kai Otley,89 Parkside Street NW,SUITE 864,Washington,D.C.,20463,Noisy,Provider
1537551330,Ophtalmology Healthcare Clinic,69665 Hayes Drive SW,,Washington,D.C.,20179,Noisy,Provider
2150568397,Internal Medicine Healthcare Center,2 Northfield Center NW,,Washington,D.C.,20370,Noisy,Provider
1630730882,Dr. Carlynn Edsall,08115 Meadow Ridge Lane NE,UNIT 912,Washington,D.C.,20129,Noisy,Provider
1905595447,Internal Medicine Physician Group,97 Melvin Court NE,,Washington,D.C.,20061,Noisy,Provider
1191211927,Dermatology Physician Associates,7545 Marquette Junction NW,UNIT 735,Washington,D.C.,20068,Noisy,Provider
2672792228,Dr. Allen Jorgensen,1996 Londonderry Parkway SW,,Washington,D.C.,20390,Noisy,Provider
1900382665,Orthopaedic Medical Practice,652 Morningstar Drive SW,SUITE 641,Washington,D.C.,20240,Noisy,Provider
1808704670,Dr. Vladimir Brittin,180 Logan Place NW,,Washington,D.C.,20238,Noisy,Provider
2718718514,Dr. Ivory MacVay,815 Ludington Park SE,UNIT 856,Washington,D.C.,20464,Noisy,Provider
1230569700,Dr. Findlay Noseworthy,13420 Beilfuss Road SW,UNIT 200,Washington,D.C.,20356,Noisy,Provider
1020102054,Dental Health Group,78 Towne Junction NW,UNIT 925,Washington,D.C.,20228,Noisy,Provider
1958820289,Dr. Bill Sitford,81 Golf View Avenue SW,SUITE 489,Washington,D.C.,20324,Noisy,Provider
2576252463,Urgent Care Medical Group,58 Weeping Birch Terrace NW,UNIT 419,Washington,D.C.,20106,Noisy,Provider
1116183511,Ophtalmology Medical Practice,2 Burning Wood Place SE,,Washington,D.C.,20374,Noisy,Provider
1987940351,Preventive Care Health Practice,918 7th Lane SW,UNIT 114,Washington,D.C.,20258,Noisy,Provider
2099755124,Family Wellness Center,742 Pond Drive NW,SUITE 440,Washington,D.C.,20290,Noisy,Provider
1389621723,Dr. Fara Dent,94736 Kipling Road SW,,Washington,D.C.,20168,Noisy,Provider
2126855490,Family Health Group,897 Gina Terrace SE,,Washington,D.C.,20489,Noisy,Provider
2094188701,Dr. Emelita Hiddy,24 Scott Drive NE,UNIT 976,Washington,D.C.,20538,Noisy,Provider
1436507329,Dental Medical Practice,8 Meadow Ridge Crossing SW,,Washington,D.C.,20459,Noisy,Provider
1835025628,Dr. Ollie Jane,72 Stuart Pass NE,,Washington,D.C.,20108,Noisy,Provider
2277944898,Dr. Pembroke Poole,5344 Mcguire Junction SE,,Washington,D.C.,20353,Noisy,Provider
1395898896,Ophtalmology Wellness Clinic,9917 Bartillon Point SE,SUITE 824,Washington,D.C.,20021,Noisy,Provider
2024625681,Dr. Cameron Dury,21 Welch Court NW,UNIT 544,Washington,D.C.,20224,Noisy,Provider
1161208164,Dr. Sheila-kathryn Abbotts,17 Cascade Road NE,UNIT 884,Washington,D.C.,20089,Noisy,Provider
2832711919,Psychiatric Wellness Associates,55 Mccormick Pass SW,,Washington,D.C.,20149,Noisy,Provider
1696273669,Dr. Vail Spring,748 Thackeray Alley SW,SUITE 751,Washington,D.C.,20375,Noisy,Provider
2733248839,Internal Medicine Physician Associates,7 Pawling Pass SE,,Washington,D.C.,20332,Noisy,Provider
2195272708,Internal Medicine Health Center,09778 Bartelt Hill NE,SUITE 250,Washington,D.C.,20144,Noisy,Provider
1803878909,Dr. Jo-ann Greaser,54 Village Place SW,UNIT 709,Washington,D.C.,20518,Noisy,Provider
2887367543,Dr. Emmalee Faragan,41614 Vermont Park SE,,Washington,D.C.,20408,Noisy,Provider
1599616912,Dr. Leilah Norster,4222 Roxbury Alley NE,,Washington,D.C.,20364,Noisy,Provider
1394441819,Family Healthcare Clinic,114 Colorado Place SW,,Washington,D.C.,20018,Noisy,Provider
1890882462,Dr. Hilliary Moxon,8 Pierstorff Junction NE,UNIT 210,Washington,D.C.,20392,Noisy,Provider
2263281325,Dr. Lief Minshaw,607 Clarendon Hill NW,UNIT 239,Washington,D.C.,20167,Noisy,Provider
2797705540,Dr. Budd Akram,1412 Melby Junction NE,SUITE 514,Washington,D.C.,20059,Noisy,Provider
2836002083,Preventive Care Wellness Associates,18 Crest Line Drive NW,SUITE 802,Washington,D.C.,20589,Noisy,Provider
2830411542,Dermatology Medical Group,9732 Surrey Alley NE,UNIT 896,Washington,D.C.,20574,Noisy,Provider
2182606760,Dermatology Physician Center,4046 Lerdahl Point SE,SUITE 310,Washington,D.C.,20498,Noisy,Provider
2830457667,Dr. Sasha Bush,56 Artisan Circle SW,SUITE 412,Washington,D.C.,20493,Noisy,Provider
2574313592,Preventive Care Wellness Practice,6715 Rusk Trail NE,SUITE 198,Washington,D.C.,20254,Noisy,Provider
2635382120,Allergy and Immunology Physician Practice,7 Canary Hill NE,UNIT 900,Washington,D.C.,20217,Noisy,Provider
2061209932,Ophtalmology Healthcare Practice,700 Golden Leaf Drive NW,SUITE 208,Washington,D.C.,20265,Noisy,Provider
1366793617,Neurological Medical Practice,649 Algoma Point NE,SUITE 910,Washington,D.C.,20508,Noisy,Provider
1514015869,Dr. Gorden Vanyukov,721 Melrose Court NE,SUITE 710,Washington,D.C.,20459,Noisy,Provider
2239903634,Allergy and Immunology Physician Associates,26 Scott Court NW,UNIT 238,Washington,D.C.,20114,Noisy,Provider
1568947028,Dr. Craggy Darrigrand,24 Tennessee Avenue SE,,Washington,D.C.,20535,Noisy,Provider
1883837693,Family Medical Associates,489 Hoard Lane NW,,Washington,D.C.,20123,Noisy,Provider
1490025174,Family Physician Associates,0772 Bowman Place SW,,Washington,D.C.,20516,Noisy,Provider
2496849470,Dr. Persis Allpress,1 Oneill Pass NE,SUITE 187,Washington,D.C.,20081,Noisy,Provider
1264954678,Dr. Sybyl Coleby,28726 Parkside Street SE,SUITE 897,Washington,D.C.,20066,Noisy,Provider
1207696996,Allergy and Immunology Medical Group,35719 Morningstar Crossing SE,,Washington,D.C.,20249,Noisy,Provider
1166217442,Dr. Arlan Crucitti,99 Brown Road SW,UNIT 278,Washington,D.C.,20413,Noisy,Provider
1130880141,Dental Health Associates,56414 Maywood Pass SW,UNIT 425,Washington,D.C.,20078,Noisy,Provider
1201757700,Dr. Johnnie Ramalho,93 Maywood Center SW,,Washington,D.C.,20516,Noisy,Provider
2535909787,Preventive Care Medical Associates,323 Reinke Circle NW,,Washington,D.C.,20258,Noisy,Provider
1346703087,Dr. Ronnie Farquharson,9 Hanson Terrace SE,UNIT 724,Washington,D.C.,20257,Noisy,Provider
1318013045,DC Medical Associates,4 Oak Valley Avenue NE,,Washington,D.C.,20268,Noisy,Provider
2569475162,Dr. Dino Champness,839 Sullivan Court NW,,Washington,D.C.,20353,Noisy,Provider
2803571813,Neurological Medical Group,9588 Florence Avenue NW,,Washington,D.C.,20091,Noisy,Provider
2321324022,Dr. Alfi Geibel,3350 Annamark Pass NE,,Washington,D.C.,20434,Noisy,Provider
2162391771,Dr. Noam Skirrow,4 International Crossing SW,UNIT 299,Washington,D.C.,20122,Noisy,Provider
1771774772,Allergy and Immunology Health Group,6574 Rusk Pass NE,,Washington,D.C.,20420,Noisy,Provider
1924277873,Allergy and Immunology Physician Practice,9148 Crescent Oaks Circle SE,SUITE 638,Washington,D.C.,20018,Noisy,Provider
1704468930,Preventive Care Health Group,6 Fair Oaks Avenue NE,UNIT 155,Washington,D.C.,20370,Noisy,Provider
1640962339,Dr. Boigie Ditts,594 High Crossing Hill NE,UNIT 879,Washington,D.C.,20142,Noisy,Provider
2783871521,Neurological Physician Practice,6 Mifflin Alley SW,UNIT 146,Washington,D.C.,20178,Noisy,Provider
1049861741,Dr. Daryn Fray,20 Melvin Road SW,UNIT 520,Washington,D.C.,20181,Noisy,Provider
2630497699,Dental Wellness Clinic,88237 Eastlawn Pass SE,UNIT 342,Washington,D.C.,20302,Noisy,Provider
2918504283,Dr. Flossi Carrigan,2911 Annamark Point SW,UNIT 308,Washington,D.C.,20190,Noisy,Provider
2574391060,Dr. Kacie Plewman,93363 Gulseth Parkway SW,,Washington,D.C.,20139,Noisy,Provider
1102014766,Dermatology Physician Center,7350 Linden Street NW,UNIT 836,Washington,D.C.,20020,Noisy,Provider
2714340064,Dr. Veronique Widdecombe,3 Glacier Hill Hill SW,SUITE 556,Washington,D.C.,20293,Noisy,Provider
1716246039,Dr. Lind Arrault,44850 Tennessee Lane NE,SUITE 829,Washington,D.C.,20109,Noisy,Provider
1189449889,Dental Medical Associates,68 Armistice Center SE,UNIT 350,Washington,D.C.,20153,Noisy,Provider
1276685033,Preventive Care Healthcare Center,7065 Anhalt Avenue SW,UNIT 610,Washington,D.C.,20126,Noisy,Provider
1129147442,Dr. Gizela Blunsom,78208 Esker Terrace NE,SUITE 966,Washington,D.C.,20274,Noisy,Provider
2820916725,Dr. Issi Ginnaly,6702 Merchant Parkway SE,SUITE 929,Washington,D.C.,20217,Noisy,Provider
1356570196,Dr. Hodge Gascoine,7 Northridge Street NE,UNIT 111,Washington,D.C.,20264,Noisy,Provider
1507824927,Physical Medicine and Rehabilitation Healthcare Group,0027 Maple Pass SW,UNIT 309,Washington,D.C.,20532,Noisy,Provider
2076100770,Dr. Steven Klainer,78043 Hoffman Park SE,,Washington,D.C.,20180,Noisy,Provider
1125437118,Dr. Kimberlyn Springtorp,544 Fordem Street SW,SUITE 964,Washington,D.C.,20540,Noisy,Provider
1577794417,Allergy and Immunology Physician Practice,12 Di Loreto Alley NE,UNIT 248,Washington,D.C.,20429,Noisy,Provider
1183754720,Dental Healthcare Center,84136 Armistice Junction SW,,Washington,D.C.,20196,Noisy,Provider
2373161901,Dermatology Health Center,5558 Dovetail Hill NE,UNIT 915,Washington,D.C.,20443,Noisy,Provider
1347336217,Internal Medicine Wellness Group,00823 Fairfield Lane SE,UNIT 190,Washington,D.C.,20503,Noisy,Provider
2213292362,Dr. Freeland Rollingson,6796 Laurel Park NW,,Washington,D.C.,20173,Noisy,Provider
2097487421,Dr. Nathalia Batrick,20 Granby Court SW,,Washington,D.C.,20491,Noisy,Provider
2754186364,Dental Wellness Clinic,21346 Oakridge Park NE,SUITE 323,Washington,D.C.,20551,Noisy,Provider
1058954160,Orthopaedic Health Clinic,905 Marquette Lane NW,,Washington,D.C.,20320,Noisy,Provider
1559234138,Dr. Jena McCrory,392 Summerview Circle SE,SUITE 564,Washington,D.C.,20055,Noisy,Provider
2692950087,Dental Healthcare Clinic,41114 Continental Alley SW,,Washington,D.C.,20162,Noisy,Provider
2275477067,Dr. Sebastiano Beaufoy,53 Debs Place SE,,Washington,D.C.,20320,Noisy,Provider
2769601318,Dr. Grenville MacSkeagan,49 School Alley NW,SUITE 675,Washington,D.C.,20236,Noisy,Provider
2887392902,Dermatology Health Clinic,6667 Forest Dale Crossing NW,,Washington,D.C.,20225,Noisy,Provider
2881410579,Physical Medicine and Rehabilitation Wellness Associates,4843 Armistice Park SW,SUITE 914,Washington,D.C.,20282,Noisy,Provider
1868666991,Internal Medicine Health Clinic,23596 Sycamore Circle NE,,Washington,D.C.,20585,Noisy,Provider
2064893992,Physical Medicine and Rehabilitation Physician Practice,2 Maryland Circle NW,SUITE 227,Washington,D.C.,20580,Noisy,Provider
2219792014,Ophtalmology Wellness Clinic,102 Di Loreto Point SE,,Washington,D.C.,20034,Noisy,Provider
2666015957,Dr. Bev Passfield,489 Esker Road NW,UNIT 559,Washington,D.C.,20018,Noisy,Provider
2088623603,Allergy and Immunology Medical Practice,24 Darwin Lane NE,,Washington,D.C.,20402,Noisy,Provider
1321732064,Psychiatric Wellness Practice,2 Westend Park SE,UNIT 422,Washington,D.C.,20461,Noisy,Provider
2919193788,Family Wellness Associates,3484 Esker Terrace SW,UNIT 995,Washington,D.C.,20208,Noisy,Provider
2343563661,DC Medical Practice,8764 Forest Run Circle SE,,Washington,D.C.,20523,Noisy,Provider
2723768814,Dr. Fulvia Arbuckel,722 Orin Street SE,,Washington,D.C.,20413,Noisy,Provider
1181072289,Dr. Aldus Laytham,09143 Eagle Crest Point SE,UNIT 913,Washington,D.C.,20315,Noisy,Provider
2704918188,Dr. Melania Kolis,136 Anniversary Junction NW,SUITE 757,Washington,D.C.,20082,Noisy,Provider
1169074425,Family Health Practice,95 Grayhawk Point SW,,Washington,D.C.,20099,Noisy,Provider
1879304561,Internal Medicine Health Center,51 Mallard Alley SE,SUITE 392,Washington,D.C.,20182,Noisy,Provider
1739246181,Physical Medicine and Rehabilitation Physician Clinic,2753 Erie Road NW,UNIT 929,Washington,D.C.,20096,Noisy,Provider
1419233793,Dr. Caryl Chumley,56227 Almo Park NW,SUITE 720,Washington,D.C.,20033,Noisy,Provider
2610052709,Dr. Clarinda Portwain,6563 Farwell Plaza SE,UNIT 633,Washington,D.C.,20549,Noisy,Provider
2011372302,Dr. Jean Restill,5 Clove Point SE,UNIT 161,Washington,D.C.,20542,Noisy,Provider
2599356517,Dr. Joceline Bust,8243 Haas Crossing SW,SUITE 718,Washington,D.C.,20369,Noisy,Provider
1949332639,Dr. Ruddie Cassam,00882 Johnson Parkway SE,UNIT 403,Washington,D.C.,20246,Noisy,Provider
2482570818,Colon and Rectal Health Associates,266 Erie Hill SE,SUITE 345,Washington,D.C.,20315,Noisy,Provider
1407861873,Ophtalmology Healthcare Practice,9353 Loftsgordon Road NE,SUITE 250,Washington,D.C.,20237,Noisy,Provider
2351459129,Allergy and Immunology Wellness Center,92741 Loftsgordon Place NE,SUITE 161,Washington,D.C.,20197,Noisy,Provider
1307449182,Neurological Wellness Center,69414 Farragut Hill SE,UNIT 357,Washington,D.C.,20271,Noisy,Provider
1984120369,Allergy and Immunology Physician Group,2 Mcguire Hill NE,UNIT 799,Washington,D.C.,20041,Noisy,Provider
1886426419,Dr. Heida Cabral,17 Granby Way SE,UNIT 188,Washington,D.C.,20022,Noisy,Provider
2359898243,Urgent Care Wellness Clinic,8395 Washington Place SW,SUITE 796,Washington,D.C.,20530,Noisy,Provider
2561907456,Dr. Thoma Edwards,17223 Utah Park NW,SUITE 844,Washington,D.C.,20494,Noisy,Provider
1815739766,DC Medical Practice,09571 Kinsman Terrace NW,SUITE 939,Washington,D.C.,20312,Noisy,Provider
1852524207,Orthopaedic Physician Associates,7229 Longview Drive SE,SUITE 392,Washington,D.C.,20443,Noisy,Provider
2873011172,Colon and Rectal Health Group,713 Nevada Lane NW,,Washington,D.C.,20250,Noisy,Provider
1034106044,Internal Medicine Healthcare Associates,848 Texas Drive NE,SUITE 774,Washington,D.C.,20206,Noisy,Provider
2618125432,Dr. Simone Beardall,03 Service Lane NW,,Washington,D.C.,20539,Noisy,Provider
1790205827,Physical Medicine and Rehabilitation Medical Clinic,8079 Sundown Crossing NE,,Washington,D.C.,20254,Noisy,Provider
1166124524,Allergy and Immunology Healthcare Associates,93531 Pearson Trail SE,UNIT 675,Washington,D.C.,20291,Noisy,Provider
1072124859,Dr. Findley Vassie,37805 Logan Point SE,UNIT 129,Washington,D.C.,20089,Noisy,Provider
1799735963,Ophtalmology Medical Clinic,458 Schiller Way SW,,Washington,D.C.,20475,Noisy,Provider
1657365530,Dr. Felix Trevain,17 Dovetail Hill SE,,Washington,D.C.,20202,Noisy,Provider
1726934853,Dr. Elladine Staples,9425 Pleasure Center SW,,Washington,D.C.,20245,Noisy,Provider
1466020169,Dr. Nikoletta Pipworth,27 Calypso Parkway NE,UNIT 337,Washington,D.C.,20525,Noisy,Provider
1658360170,Dr. Charlena Rasch,852 Heath Drive NE,,Washington,D.C.,20112,Noisy,Provider
2221244717,Neurological Wellness Practice,638 Chive Crossing SE,UNIT 440,Washington,D.C.,20329,Noisy,Provider
2723932574,Ophtalmology Health Group,5 Erie Crossing NE,,Washington,D.C.,20171,Noisy,Provider
2501687002,Dr. Davidson Guyton,98 Eliot Place NE,UNIT 726,Washington,D.C.,20009,Noisy,Provider
1979524961,Urgent Care Physician Associates,4292 Hudson Court NW,UNIT 711,Washington,D.C.,20419,Noisy,Provider
1123497660,Dermatology Medical Center,333 3rd Plaza NE,,Washington,D.C.,20530,Noisy,Provider
1446237969,Colon and Rectal Health Practice,9812 Pankratz Park NE,,Washington,D.C.,20084,Noisy,Provider
1802578677,Dr. Gale Bough,5 Butterfield Road NW,,Washington,D.C.,20293,Noisy,Provider
2619493635,Dermatology Medical Clinic,1 Mandrake Trail SE,SUITE 432,Washington,D.C.,20270,Noisy,Provider
2324598867,Dr. Latia Barbe,383 Thompson Court NW,,Washington,D.C.,20484,Noisy,Provider
1404515467,Physical Medicine and Rehabilitation Physician Associates,7 Di Loreto Junction SW,UNIT 390,Washington,D.C.,20319,Noisy,Provider
1547872424,Neurological Health Center,761 Armistice Avenue SW,SUITE 168,Washington,D.C.,20286,Noisy,Provider
2179028034,Urgent Care Healthcare Clinic,68 Kinsman Point SE,UNIT 747,Washington,D.C.,20567,Noisy,Provider
2044582044,DC Physician Clinic,34 Crownhardt Court SE,SUITE 400,Washington,D.C.,20394,Noisy,Provider
1978666350,Dermatology Health Group,214 Warner Center NE,,Washington,D.C.,20018,Noisy,Provider
2742783694,Dr. Wolfy Horstead,6726 Crest Line Plaza NW,SUITE 372,Washington,D.C.,20598,Noisy,Provider
2009084706,DC Medical Center,35 Melrose Lane NE,UNIT 108,Washington,D.C.,20303,Noisy,Provider
2454404009,Orthopaedic Wellness Center,92205 Oneill Place SE,UNIT 969,Washington,D.C.,20502,Noisy,Provider
1313525971,Internal Medicine Health Group,8 Hazelcrest Pass SE,UNIT 593,Washington,D.C.,20334,Noisy,Provider
2798127911,Dr. Nissy Peter,556 Basil Alley NE,,Washington,D.C.,20037,Noisy,Provider
2405208876,Urgent Care Health Practice,01970 Pond Place NE,,Washington,D.C.,20393,Noisy,Provider
1994589565,Dr. Brook Oak,74781 Golden Leaf Avenue NW,,Washington,D.C.,20283,Noisy,Provider
1970706051,Family Physician Practice,67789 Everett Alley SE,SUITE 368,Washington,D.C.,20031,Noisy,Provider
1360702219,Dr. Cully Reisenberg,49 Ruskin Plaza NE,UNIT 973,Washington,D.C.,20479,Noisy,Provider
2752969867,Family Medical Practice,37317 Autumn Leaf Trail NW,,Washington,D.C.,20241,Noisy,Provider
2693464814,Dr. Dimitri Sweatland,070 Bunker Hill Avenue NW,SUITE 147,Washington,D.C.,20137,Noisy,Provider
1044086635,DC Health Group,51515 Talmadge Court SW,UNIT 880,Washington,D.C.,20570,Noisy,Provider
1582434450,Dr. Blisse Goldsmith,18 Farmco Junction NE,UNIT 647,Washington,D.C.,20113,Noisy,Provider
2710015666,Dr. Pincas Triggle,1795 Golf Drive SE,UNIT 252,Washington,D.C.,20142,Noisy,Provider
1287062970,Dr. Davina Dunkerly,7250 Anthes Plaza NW,SUITE 307,Washington,D.C.,20146,Noisy,Provider
2115184333,Orthopaedic Health Center,77896 Spaight Lane NE,UNIT 443,Washington,D.C.,20078,Noisy,Provider
1950413877,Orthopaedic Healthcare Clinic,505 Meadow Ridge Alley SW,,Washington,D.C.,20239,Noisy,Provider
2704775748,Dr. Rozelle Biesty,79835 Stang Circle SW,SUITE 501,Washington,D.C.,20443,Noisy,Provider
2951923392,Family Health Associates,60943 West Plaza SE,UNIT 203,Washington,D.C.,20474,Noisy,Provider
1110664982,Neurological Wellness Practice,91162 Reinke Way SW,UNIT 945,Washington,D.C.,20056,Noisy,Provider
1346103989,Allergy and Immunology Health Associates,915 Lillian Crossing NE,,Washington,D.C.,20191,Noisy,Provider
2698509257,Dr. Lynea Catterell,7 Clove Park NE,UNIT 814,Washington,D.C.,20233,Noisy,Provider
2225360482,Dr. Batsheva Kirkam,04 Farragut Terrace NW,UNIT 888,Washington,D.C.,20240,Noisy,Provider
1057521035,Dr. Cullin Gabbott,3042 Lyons Terrace NE,,Washington,D.C.,20151,Noisy,Provider
1925574119,DC Healthcare Clinic,04637 Continental Terrace NE,,Washington,D.C.,20594,Noisy,Provider
1226002444,Physical Medicine and Rehabilitation Physician Center,72 Logan Drive SE,UNIT 730,Washington,D.C.,20212,Noisy,Provider
2009720772,Physical Medicine and Rehabilitation Medical Associates,851 Eastwood Center NE,,Washington,D.C.,20277,Noisy,Provider
2342892691,Dental Wellness Group,91 Ridgeview Way SW,UNIT 519,Washington,D.C.,20444,Noisy,Provider
2877326295,Dr. Robenia Eldershaw,2 Parkside Crossing NE,UNIT 521,Washington,D.C.,20093,Noisy,Provider
2141085785,Dr. Jeff Edleston,39760 Talmadge Crossing SE,,Washington,D.C.,20273,Noisy,Provider
2482788455,Dr. Carrie Creevy,27211 Delladonna Circle SE,SUITE 276,Washington,D.C.,20033,Noisy,Provider
2796802548,Dr. Klemens Vaggs,9 Westerfield Point NE,SUITE 352,Washington,D.C.,20191,Noisy,Provider
1487932063,Orthopaedic Healthcare Associates,0415 Lien Plaza SW,SUITE 374,Washington,D.C.,20074,Noisy,Provider
1507744713,Allergy and Immunology Health Group,9043 Dapin Trail NE,UNIT 136,Washington,D.C.,20463,Noisy,Provider
2359413704,Dr. Alethea Kindley,84512 Loeprich Junction SE,UNIT 911,Washington,D.C.,20036,Noisy,Provider
1510237589,DC Healthcare Clinic,7196 Manley Court SE,UNIT 436,Washington,D.C.,20167,Noisy,Provider
1028303079,Dr. Misha Doumerc,54 Browning Avenue SW,SUITE 609,Washington,D.C.,20370,Noisy,Provider
1502560851,Dr. Kalila Crewes,74 Blaine Way SE,,Washington,D.C.,20147,Noisy,Provider
1080777091,Physical Medicine and Rehabilitation Wellness Clinic,1 Knutson Point NE,SUITE 175,Washington,D.C.,20301,Noisy,Provider
1566729098,Family Health Group,74177 Ruskin Circle NE,SUITE 272,Washington,D.C.,20473,Noisy,Provider
1380296721,Neurological Health Clinic,991 Elgar Alley NE,,Washington,D.C.,20380,Noisy,Provider
1922086623,Dr. Reuben Stoggles,68923 Waxwing Terrace SW,UNIT 143,Washington,D.C.,20283,Noisy,Provider
1528808082,Dr. Dinah Satchell,720 Di Loreto Circle NW,,Washington,D.C.,20351,Noisy,Provider
1949456270,Dr. Eulalie Maskrey,1296 Buell Court SE,UNIT 688,Washington,D.C.,20343,Noisy,Provider
2917563157,Allergy and Immunology Wellness Clinic,7579 Hansons Park SW,UNIT 511,Washington,D.C.,20438,Noisy,Provider
2183917732,Dr. Matthias Hawarden,933 Shoshone Plaza SE,UNIT 244,Washington,D.C.,20472,Noisy,Provider
2006671379,Dr. Olympe McKevin,628 Manitowish Road SW,,Washington,D.C.,20317,Noisy,Provider
1568102189,Dr. Mead Newtown,569 Barnett Lane SW,UNIT 712,Washington,D.C.,20379,Noisy,Provider
1969410882,Dr. Yvette MacKnight,4507 Mesta Alley NW,SUITE 165,Washington,D.C.,20293,Noisy,Provider
2829402872,Family Physician Associates,87 Myrtle Road NW,,Washington,D.C.,20125,Noisy,Provider
2455657488,Preventive Care Medical Clinic,26249 Northland Hill SW,UNIT 269,Washington,D.C.,20096,Noisy,Provider
2774479310,Dr. Amaleta Caldecutt,1 Ruskin Park SE,,Washington,D.C.,20590,Noisy,Provider
1137276188,Dr. Lenore de Leon,04084 Derek Drive SW,SUITE 749,Washington,D.C.,20167,Noisy,Provider
2353458684,Dr. Humbert Stonnell,470 Pond Parkway NE,UNIT 417,Washington,D.C.,20328,Noisy,Provider
1700945863,Dental Medical Group,9 Spaight Way SW,,Washington,D.C.,20023,Noisy,Provider
2237589832,Dr. Ida Rosenau,3 Bobwhite Plaza SE,UNIT 246,Washington,D.C.,20538,Noisy,Provider
2774728415,Urgent Care Healthcare Clinic,5960 Gale Parkway NE,,Washington,D.C.,20232,Noisy,Provider
1709914188,Dr. Giffer Lage,747 Hollow Ridge Road NE,UNIT 912,Washington,D.C.,20250,Noisy,Provider
1090170926,Family Health Group,614 Mariners Cove Drive NE,,Washington,D.C.,20192,Noisy,Provider
2738118588,Psychiatric Medical Practice,6791 Mcbride Plaza SE,,Washington,D.C.,20180,Noisy,Provider
2750322318,Dr. Sadye Ramiro,71430 Forest Run Terrace SW,SUITE 495,Washington,D.C.,20444,Noisy,Provider
1942615774,Colon and Rectal Medical Associates,478 Norway Maple Trail SW,SUITE 322,Washington,D.C.,20086,Noisy,Provider
2547698740,Neurological Medical Practice,8 Meadow Vale Road NE,SUITE 289,Washington,D.C.,20065,Noisy,Provider
1810573498,Dr. Cynthea Birkenshaw,77 Maple Center SW,,Washington,D.C.,20447,Noisy,Provider
1777409124,Dr. Bondon Fanthome,3968 Atwood Road SE,SUITE 909,Washington,D.C.,20592,Noisy,Provider
2362084062,Orthopaedic Health Group,14913 Clemons Road SE,SUITE 589,Washington,D.C.,20454,Noisy,Provider
2898542423,Dr. Ingrid Cottem,6 6th Circle SW,,Washington,D.C.,20438,Noisy,Provider
1176215378,Colon and Rectal Healthcare Associates,963 Crest Line Place SW,UNIT 463,Washington,D.C.,20450,Noisy,Provider
2659664947,Dr. Ely Stoak,24126 Charing Cross Park NE,UNIT 880,Washington,D.C.,20430,Noisy,Provider
2412347042,DC Health Associates,59 Emmet Road SE,UNIT 428,Washington,D.C.,20345,Noisy,Provider
1116585488,Dr. Karalynn Aleso,458 Sheridan Park NW,SUITE 686,Washington,D.C.,20404,Noisy,Provider
1409930945,Dr. Shayla Woodnutt,5981 7th Alley NE,,Washington,D.C.,20507,Noisy,Provider
2556248199,Dr. Leontyne Bordis,83 Homewood Place SW,,Washington,D.C.,20348,Noisy,Provider
1694981785,Neurological Healthcare Group,528 Oneill Avenue SE,SUITE 797,Washington,D.C.,20489,Noisy,Provider
2341193208,Urgent Care Wellness Center,58 Melrose Alley SE,UNIT 654,Washington,D.C.,20036,Noisy,Provider
2246302884,Dr. Electra Pickup,25726 Katie Terrace SE,,Washington,D.C.,20156,Noisy,Provider
1522462673,Dr. Ines Wrenn,69436 Ruskin Crossing NE,SUITE 946,Washington,D.C.,20542,Noisy,Provider
1503447893,Dental Healthcare Associates,7 Muir Crossing SW,,Washington,D.C.,20127,Noisy,Provider
1366188100,Preventive Care Wellness Associates,0758 Bultman Park NE,SUITE 777,Washington,D.C.,20020,Noisy,Provider
1750378812,Preventive Care Healthcare Clinic,4873 Dryden Way SW,UNIT 656,Washington,D.C.,20160,Noisy,Provider
1122411202,Dr. Moreen Sarfat,831 Green Hill NW,SUITE 830,Washington,D.C.,20388,Noisy,Provider
1472484291,Dr. Mersey Aronin,81 Talmadge Street NW,UNIT 420,Washington,D.C.,20285,Noisy,Provider
1777445725,Dental Health Center,0779 Arapahoe Park NE,UNIT 136,Washington,D.C.,20278,Noisy,Provider
1054423923,Urgent Care Healthcare Group,23814 Sutteridge Trail SE,SUITE 425,Washington,D.C.,20430,Noisy,Provider
2966919586,Dr. Kevan Bootherstone,311 Amoth Parkway SW,,Washington,D.C.,20536,Noisy,Provider
1758870024,Dr. Fidelia Brazil,06 Westridge Trail SW,,Washington,D.C.,20427,Noisy,Provider
2471423112,Psychiatric Health Center,07272 Beilfuss Hill NW,UNIT 376,Washington,D.C.,20427,Noisy,Provider
1461523178,Dr. Xena Breheny,080 Hauk Park SE,,Washington,D.C.,20312,Noisy,Provider
2396971044,Dr. Demott Lightbown,02 Dixon Junction SE,UNIT 112,Washington,D.C.,20083,Noisy,Provider
2322633509,Dr. Catina Lulham,95 Pepper Wood Court SE,SUITE 427,Washington,D.C.,20146,Noisy,Provider
2500770432,Dr. Rollo Emmett,61345 Mariners Cove Avenue SE,SUITE 319,Washington,D.C.,20389,Noisy,Provider
1435190424,Colon and Rectal Healthcare Practice,643 Sachs Pass SW,SUITE 659,Washington,D.C.,20173,Noisy,Provider
1414514511,DC Wellness Clinic,33453 Westport Pass NW,UNIT 686,Washington,D.C.,20075,Noisy,Provider
2167055080,Family Medical Clinic,4 Sunnyside Trail SW,SUITE 843,Washington,D.C.,20226,Noisy,Provider
2657116634,Ophtalmology Medical Associates,69 Anderson Lane SW,UNIT 342,Washington,D.C.,20373,Noisy,Provider
1971222764,Neurological Physician Clinic,1 Hoepker Lane NW,UNIT 559,Washington,D.C.,20528,Noisy,Provider
1878024596,Dr. Merry Stanhope,92080 Myrtle Trail NW,UNIT 320,Washington,D.C.,20211,Noisy,Provider
2805176191,DC Medical Center,18 Northwestern Alley NE,SUITE 434,Washington,D.C.,20035,Noisy,Provider
2791155618,Dr. Raleigh Mowles,483 Nelson Parkway NW,UNIT 300,Washington,D.C.,20593,Noisy,Provider
1364930632,Internal Medicine Wellness Associates,31060 Esker Center SW,,Washington,D.C.,20008,Noisy,Provider
1338651900,Dr. Wiley Itshak,687 Glendale Avenue SE,,Washington,D.C.,20228,Noisy,Provider
2634446881,Dr. Darrin Lambillion,4 Loeprich Parkway NW,,Washington,D.C.,20041,Noisy,Provider
2058342358,Dr. Buck Kubu,3775 Oakridge Lane NE,,Washington,D.C.,20023,Noisy,Provider
2679205650,Dr. Bernetta Cristol,24061 Morrow Drive NW,SUITE 757,Washington,D.C.,20246,Noisy,Provider
2008244157,Family Healthcare Practice,60356 Bunker Hill Alley SE,UNIT 477,Washington,D.C.,20553,Noisy,Provider
2934874272,Dr. Munroe Portugal,09 Loeprich Junction SE,SUITE 343,Washington,D.C.,20365,Noisy,Provider
2697324863,Dr. Dorey Hallum,90 Old Shore Avenue SE,SUITE 210,Washington,D.C.,20380,Noisy,Provider
2069650765,Neurological Medical Group,937 Orin Point NW,UNIT 991,Washington,D.C.,20237,Noisy,Provider
2920212225,Dr. Marie-jeanne Orchard,0 Dixon Street NW,,Washington,D.C.,20361,Noisy,Provider
2822521663,Ophtalmology Physician Associates,471 Quincy Way NE,,Washington,D.C.,20400,Noisy,Provider
2858196829,Physical Medicine and Rehabilitation Physician Group,2692 Sauthoff Pass SW,,Washington,D.C.,20078,Noisy,Provider
1067702402,Dr. Briant Driscoll,45 Northridge Center NW,,Washington,D.C.,20183,Noisy,Provider
2549713786,Dr. Maribeth Fennick,18 Onsgard Trail SE,SUITE 308,Washington,D.C.,20519,Noisy,Provider
2514218521,Preventive Care Healthcare Group,34 Judy Alley NE,,Washington,D.C.,20588,Noisy,Provider
2848666708,Dr. Perkin Beers,122 Lunder Way SW,,Washington,D.C.,20176,Noisy,Provider
1039176180,Ophtalmology Healthcare Associates,4 Quincy Lane SE,,Washington,D.C.,20554,Noisy,Provider
2563695503,Family Physician Practice,71 Pleasure Trail NE,UNIT 930,Washington,D.C.,20244,Noisy,Provider
1613983669,Dental Health Practice,13 Killdeer Place NW,SUITE 392,Washington,D.C.,20189,Noisy,Provider
2431575183,Dr. Tobie Stitcher,152 Buell Crossing SE,SUITE 128,Washington,D.C.,20174,Noisy,Provider
2871623539,Preventive Care Health Clinic,22 Eagan Road SE,,Washington,D.C.,20154,Noisy,Provider
1656114150,Family Health Clinic,76867 Mitchell Park NE,UNIT 260,Washington,D.C.,20463,Noisy,Provider
1749217491,Psychiatric Health Clinic,8820 Hoffman Crossing NW,,Washington,D.C.,20490,Noisy,Provider
2127886621,Dr. Gardy Aysik,38 Monica Way SW,,Washington,D.C.,20584,Noisy,Provider
1902692964,Internal Medicine Physician Center,8654 Cherokee Center NW,SUITE 247,Washington,D.C.,20351,Noisy,Provider
1999656512,Neurological Medical Practice,99097 Loomis Crossing SW,UNIT 707,Washington,D.C.,20538,Noisy,Provider
1392344372,Urgent Care Physician Clinic,6302 Schmedeman Plaza SW,SUITE 313,Washington,D.C.,20521,Noisy,Provider
1919862686,Dr. Hamlen Tidcomb,7231 Huxley Hill SW,UNIT 682,Washington,D.C.,20478,Noisy,Provider
2232237599,Neurological Medical Group,0 Redwing Place NE,UNIT 217,Washington,D.C.,20285,Noisy,Provider
1540802552,Physical Medicine and Rehabilitation Health Center,489 Morning Junction SE,UNIT 789,Washington,D.C.,20201,Noisy,Provider
1616024878,Dr. Royce Widd,95 Riverside Plaza NE,,Washington,D.C.,20356,Noisy,Provider
2399854031,Dr. Illa Norres,6644 Hazelcrest Junction NW,SUITE 190,Washington,D.C.,20222,Noisy,Provider
2883234011,Dermatology Wellness Clinic,0185 Florence Way SW,UNIT 603,Washington,D.C.,20421,Noisy,Provider
2216340426,Psychiatric Health Group,19 Kennedy Road NW,,Washington,D.C.,20222,Noisy,Provider
1926729852,Preventive Care Physician Clinic,57578 Lighthouse Bay Street SW,UNIT 108,Washington,D.C.,20377,Noisy,Provider
1577566682,Psychiatric Wellness Associates,16846 Harbort Pass NW,,Washington,D.C.,20225,Noisy,Provider
1988973491,Dr. Tomlin Fairs,8284 Anhalt Court SE,,Washington,D.C.,20086,Noisy,Provider
1472314350,Dr. Polly Slides,45 Florence Place NE,SUITE 992,Washington,D.C.,20337,Noisy,Provider
1263412821,Neurological Health Practice,26 Coleman Way NW,UNIT 365,Washington,D.C.,20075,Noisy,Provider
1577446263,Neurological Wellness Center,7514 Mockingbird Lane NW,,Washington,D.C.,20453,Noisy,Provider
2583691518,Dental Healthcare Associates,8175 Moulton Court NE,SUITE 878,Washington,D.C.,20437,Noisy,Provider
2334649010,Physical Medicine and Rehabilitation Healthcare Practice,806 Elgar Alley NE,SUITE 546,Washington,D.C.,20137,Noisy,Provider
1774738995,Dr. Morse Kears,76193 Weeping Birch Center SE,SUITE 177,Washington,D.C.,20033,Noisy,Provider
1165747946,Dr. Nannie Richardin,14723 Bowman Terrace NE,UNIT 314,Washington,D.C.,20397,Noisy,Provider
1090717539,Dr. Sebastian Barrie,8488 Sutteridge Plaza SE,,Washington,D.C.,20037,Noisy,Provider
1723594204,Family Health Practice,291 Rutledge Crossing SE,SUITE 279,Washington,D.C.,20387,Noisy,Provider
1070813502,Dr. Antonin Wroughton,35333 Superior Street NE,,Washington,D.C.,20369,Noisy,Provider
1744179765,Dr. Chester Jowsey,983 Toban Point SE,SUITE 207,Washington,D.C.,20370,Noisy,Provider
2108801582,Dr. Valerie Coate,932 Vidon Alley NE,,Washington,D.C.,20020,Noisy,Provider
2484177862,Dr. Sally Conachie,4 Dorton Road SE,UNIT 789,Washington,D.C.,20506,Noisy,Provider
1948866969,Colon and Rectal Physician Practice,6399 2nd Crossing SE,,Washington,D.C.,20316,Noisy,Provider
1602537206,Dr. Barry Luckham,8515 Corscot Trail NE,SUITE 126,Washington,D.C.,20031,Noisy,Provider
1698873143,Dental Medical Center,98 Blue Bill Park Plaza NE,UNIT 378,Washington,D.C.,20250,Noisy,Provider
1771490223,Preventive Care Wellness Associates,956 Veith Road SW,,Washington,D.C.,20405,Noisy,Provider
2296536084,Dr. Natalya Romi,729 Darwin Court SW,UNIT 912,Washington,D.C.,20199,Noisy,Provider
1357226230,Physical Medicine and Rehabilitation Health Clinic,269 Mallory Alley NE,SUITE 613,Washington,D.C.,20549,Noisy,Provider
1498953310,DC Medical Associates,17836 Continental Hill NE,,Washington,D.C.,20150,Noisy,Provider
1428314862,Dr. Raddie Whitnell,33 Brickson Park Hill NW,SUITE 952,Washington,D.C.,20303,Noisy,Provider
2337975598,Dr. Rance Tollett,7475 Mcbride Alley NE,UNIT 131,Washington,D.C.,20200,Noisy,Provider
2949793358,Dr. Britni Skurm,881 Melody Pass NW,UNIT 391,Washington,D.C.,20270,Noisy,Provider
2552941813,Orthopaedic Medical Group,1 Southridge Road SW,,Washington,D.C.,20494,Noisy,Provider
1859555850,Dr. Franzen Jillett,7 Cherokee Hill NW,SUITE 931,Washington,D.C.,20099,Noisy,Provider
2177780042,Dr. Otto Spirit,141 Moose Lane NW,SUITE 662,Washington,D.C.,20446,Noisy,Provider
1075115122,Dr. Carleen Joppich,8 Glacier Hill Plaza NE,,Washington,D.C.,20192,Noisy,Provider
2670822457,Preventive Care Physician Associates,8 Mifflin Road NE,UNIT 512,Washington,D.C.,20065,Noisy,Provider
1628795289,Dr. Martino Keeltagh,295 Troy Street NE,UNIT 607,Washington,D.C.,20388,Noisy,Provider
1646471439,Colon and Rectal Wellness Group,51 Raven Pass NE,,Washington,D.C.,20052,Noisy,Provider
2882713064,Psychiatric Medical Clinic,8 Hollow Ridge Trail NE,UNIT 135,Washington,D.C.,20049,Noisy,Provider
1066186183,Internal Medicine Healthcare Group,54 Dryden Center SW,SUITE 199,Washington,D.C.,20131,Noisy,Provider
1651038140,Dr. Leicester Moorman,2697 Veith Court SE,SUITE 320,Washington,D.C.,20276,Noisy,Provider
1814362179,Colon and Rectal Medical Group,4 Dexter Avenue NE,SUITE 832,Washington,D.C.,20576,Noisy,Provider
2840757747,Psychiatric Healthcare Center,08942 Coleman Way SW,,Washington,D.C.,20322,Noisy,Provider
1581369313,Psychiatric Wellness Practice,59247 Johnson Terrace NE,SUITE 737,Washington,D.C.,20386,Noisy,Provider
1783379755,Dr. Radcliffe Fedorchenko,7588 Mallard Plaza SW,SUITE 197,Washington,D.C.,20361,Noisy,Provider
1502441017,Dental Medical Associates,9187 Dakota Center SE,SUITE 179,Washington,D.C.,20120,Noisy,Provider
1112534480,Family Health Center,09261 Eastlawn Alley SW,UNIT 136,Washington,D.C.,20433,Noisy,Provider
2280282204,Allergy and Immunology Wellness Group,6516 Burrows Road NE,,Washington,D.C.,20469,Noisy,Provider
2942793681,Dr. Kelsy McCarlich,87 Grayhawk Hill NE,,Washington,D.C.,20340,Noisy,Provider
2466706226,Dr. Jerrine Tinto,7321 Jenifer Junction SW,SUITE 243,Washington,D.C.,20234,Noisy,Provider
2116654858,Preventive Care Medical Clinic,33 Meadow Ridge Lane SW,,Washington,D.C.,20530,Noisy,Provider
2855420474,Colon and Rectal Wellness Clinic,9 Talisman Circle NW,SUITE 465,Washington,D.C.,20159,Noisy,Provider
1106127449,Urgent Care Physician Group,03350 Village Green Junction SW,,Washington,D.C.,20365,Noisy,Provider
1685839456,Dr. Kip Ninnoli,29 Armistice Plaza SE,SUITE 116,Washington,D.C.,20398,Noisy,Provider
2872728922,Ophtalmology Health Center,10 Toban Junction SE,SUITE 457,Washington,D.C.,20462,Noisy,Provider
2118927611,Dr. Pat Streight,56886 Green Point NW,,Washington,D.C.,20339,Noisy,Provider
2827079478,Dr. Malina Gascar,57960 Gateway Terrace SW,UNIT 562,Washington,D.C.,20397,Noisy,Provider
2660754822,Dr. Dorry Elstow,8567 Amoth Alley NW,SUITE 962,Washington,D.C.,20378,Noisy,Provider
1635059070,Dr. Margarethe Burk,709 Pennsylvania Center NE,,Washington,D.C.,20591,Noisy,Provider
2727898459,Neurological Wellness Practice,45687 Eagle Crest Court SW,UNIT 494,Washington,D.C.,20273,Noisy,Provider
2166836074,Dermatology Healthcare Practice,12831 Gerald Way NW,UNIT 677,Washington,D.C.,20407,Noisy,Provider
2151087318,Dental Physician Practice,5275 Jackson Avenue NE,UNIT 976,Washington,D.C.,20446,Noisy,Provider
2948273792,Dr. Chrysa Whithalgh,19648 Dunning Point SE,,Washington,D.C.,20509,Noisy,Provider
1919901327,Dr. Betteanne Eby,6350 Lighthouse Bay Street NE,,Washington,D.C.,20448,Noisy,Provider
2434131624,Preventive Care Physician Associates,6 Ryan Pass NW,UNIT 729,Washington,D.C.,20267,Noisy,Provider
1796877600,Physical Medicine and Rehabilitation Health Clinic,5180 Jackson Terrace SW,,Washington,D.C.,20056,Noisy,Provider
2945109659,Dr. Kirstin FitzGibbon,14 Del Sol Place SW,,Washington,D.C.,20112,Noisy,Provider
1283511783,Dr. Salaidh Coonihan,661 Becker Park SE,UNIT 656,Washington,D.C.,20112,Noisy,Provider
2504474141,Colon and Rectal Medical Practice,71 Green Ridge Pass NE,,Washington,D.C.,20395,Noisy,Provider
2461098803,Dr. Saunder Biskupek,149 Ryan Point NE,UNIT 175,Washington,D.C.,20148,Noisy,Provider
2943383823,Family Healthcare Clinic,8293 Springs Alley SW,,Washington,D.C.,20355,Noisy,Provider
1956852354,Orthopaedic Wellness Clinic,3 Fallview Center NW,,Washington,D.C.,20525,Noisy,Provider
1099670792,DC Healthcare Practice,857 Doe Crossing Park SW,,Washington,D.C.,20370,Noisy,Provider
2605266512,Preventive Care Health Center,71486 Texas Trail SW,,Washington,D.C.,20286,Noisy,Provider
2491186757,Dr. Lorelei Tibbetts,415 Weeping Birch Drive SW,SUITE 707,Washington,D.C.,20322,Noisy,Provider
2958118722,Dr. Agnola Donativo,092 Oakridge Trail NW,UNIT 644,Washington,D.C.,20530,Noisy,Provider
2716497930,Psychiatric Health Associates,0 Northwestern Trail NE,,Washington,D.C.,20276,Noisy,Provider
2503430564,Dr. Conant Dow,658 Commercial Pass SE,SUITE 755,Washington,D.C.,20225,Noisy,Provider
2468606131,Ophtalmology Health Associates,0 Maple Terrace SW,,Washington,D.C.,20347,Noisy,Provider
2528474987,Dr. Dulcy Birtwistle,836 Rutledge Hill SW,UNIT 255,Washington,D.C.,20258,Noisy,Provider
2234919303,Dr. Lilyan Pechold,737 Kenwood Place NE,,Washington,D.C.,20291,Noisy,Provider
1369703926,Dr. Amandi Mackie,5 Becker Lane SW,SUITE 674,Washington,D.C.,20488,Noisy,Provider
1224225126,Orthopaedic Wellness Group,59141 Eastlawn Street SE,SUITE 507,Washington,D.C.,20579,Noisy,Provider
2202191923,Physical Medicine and Rehabilitation Physician Practice,1728 Hanson Terrace NE,,Washington,D.C.,20149,Noisy,Provider
1409279356,Family Healthcare Clinic,5 Redwing Park NE,SUITE 932,Washington,D.C.,20381,Noisy,Provider
2083234504,Preventive Care Wellness Clinic,888 Graedel Lane NE,,Washington,D.C.,20539,Noisy,Provider
2454372808,Internal Medicine Physician Clinic,348 Onsgard Avenue SW,SUITE 837,Washington,D.C.,20330,Noisy,Provider
2946331967,Dr. Leupold Kilmurray,29830 Manitowish Road NE,SUITE 487,Washington,D.C.,20032,Noisy,Provider
1198766358,Ophtalmology Healthcare Clinic,49779 Crescent Oaks Lane SE,SUITE 380,Washington,D.C.,20447,Noisy,Provider
2273133009,Internal Medicine Healthcare Group,1 Merry Park SW,UNIT 883,Washington,D.C.,20031,Noisy,Provider
2567708973,DC Medical Associates,892 Bultman Avenue NW,,Washington,D.C.,20420,Noisy,Provider
2162120260,Internal Medicine Healthcare Practice,8 Pepper Wood Parkway SW,,Washington,D.C.,20458,Noisy,Provider
1087654807,Preventive Care Healthcare Associates,36 Brickson Park Lane SE,,Washington,D.C.,20526,Noisy,Provider
1684712009,Orthopaedic Physician Clinic,7785 Stang Drive NE,UNIT 507,Washington,D.C.,20303,Noisy,Provider
2152184690,Dr. Renaud Melross,1956 Surrey Center NE,SUITE 251,Washington,D.C.,20123,Noisy,Provider
2559789817,Allergy and Immunology Healthcare Clinic,40225 Monument Park NE,UNIT 544,Washington,D.C.,20102,Noisy,Provider
1077145755,Dr. Norine Gabbat,542 Harbort Road SE,SUITE 977,Washington,D.C.,20021,Noisy,Provider
1653599902,Dr. Renae Varren,39 Tomscot Junction SE,,Washington,D.C.,20425,Noisy,Provider
1047968914,Dr. Gustavus Finlaison,959 Iowa Street NE,SUITE 318,Washington,D.C.,20354,Noisy,Provider
2386914135,DC Health Clinic,75 Nancy Avenue NE,UNIT 211,Washington,D.C.,20121,Noisy,Provider
2609218360,Urgent Care Wellness Center,4 Rowland Hill SE,,Washington,D.C.,20583,Noisy,Provider
2289925858,Preventive Care Medical Center,824 Glacier Hill Crossing SW,UNIT 714,Washington,D.C.,20259,Noisy,Provider
1470256252,Orthopaedic Wellness Center,61 Londonderry Park SE,,Washington,D.C.,20573,Noisy,Provider
1388647727,Dermatology Health Associates,04 Eagle Crest Plaza SW,,Washington,D.C.,20017,Noisy,Provider
2885888218,Dental Medical Associates,01 David Circle NW,UNIT 730,Washington,D.C.,20433,Noisy,Provider
1880439845,Urgent Care Health Associates,86591 Dryden Parkway NE,SUITE 503,Washington,D.C.,20161,Noisy,Provider
1114442909,Psychiatric Health Center,628 Manley Terrace SW,,Washington,D.C.,20520,Noisy,Provider
1622622036,Dr. Timotheus Adamek,5738 Arapahoe Pass SW,SUITE 776,Washington,D.C.,20291,Noisy,Provider
1891783379,Internal Medicine Wellness Associates,38075 Westend Avenue NE,SUITE 209,Washington,D.C.,20390,Noisy,Provider
2486635955,Ophtalmology Medical Center,035 Fieldstone Circle SE,UNIT 539,Washington,D.C.,20399,Noisy,Provider
2962949392,Neurological Healthcare Practice,68 Carey Court SW,,Washington,D.C.,20562,Noisy,Provider
2986651873,Dr. Benn Pinwill,24631 Killdeer Lane SW,UNIT 216,Washington,D.C.,20002,Noisy,Provider
2881701286,Dr. Fred Laffan,2505 Northridge Lane NE,UNIT 762,Washington,D.C.,20153,Noisy,Provider
2644623492,Ophtalmology Health Practice,5074 1st Street SW,,Washington,D.C.,20251,Noisy,Provider
1477060846,Dr. Aldis Edgecombe,30 Village Parkway NE,UNIT 630,Washington,D.C.,20136,Noisy,Provider
1282124189,Orthopaedic Healthcare Clinic,87 Forest Dale Pass NW,UNIT 793,Washington,D.C.,20597,Noisy,Provider
2174657885,Orthopaedic Healthcare Associates,94 Hauk Place NE,UNIT 440,Washington,D.C.,20437,Noisy,Provider
1856408285,Internal Medicine Medical Center,7118 Sherman Park SE,SUITE 494,Washington,D.C.,20317,Noisy,Provider
2327329515,DC Wellness Associates,1752 Morrow Circle NW,,Washington,D.C.,20215,Noisy,Provider
2061059477,DC Healthcare Group,652 Cottonwood Point NE,,Washington,D.C.,20571,Noisy,Provider
2279489694,Dr. Guenna Prickett,82026 Blackbird Parkway NW,SUITE 248,Washington,D.C.,20194,Noisy,Provider
1183970201,Psychiatric Wellness Associates,2244 Logan Hill SW,SUITE 404,Washington,D.C.,20301,Noisy,Provider
2079857232,Dr. Dora Clive,7 Rockefeller Junction SW,UNIT 959,Washington,D.C.,20505,Noisy,Provider
2800961457,Dr. Daisie Baniard,27 Moland Hill SW,,Washington,D.C.,20143,Noisy,Provider
2344425647,Dr. Morris Sucre,6075 Autumn Leaf Drive SE,,Washington,D.C.,20458,Noisy,Provider
2031482184,Physical Medicine and Rehabilitation Healthcare Clinic,0 Towne Park SE,SUITE 184,Washington,D.C.,20567,Noisy,Provider
2807068238,Internal Medicine Wellness Clinic,16 Sunbrook Pass NW,UNIT 319,Washington,D.C.,20199,Noisy,Provider
2569827767,Urgent Care Healthcare Center,81 Bluestem Parkway NE,UNIT 934,Washington,D.C.,20020,Noisy,Provider
1479554981,Ophtalmology Healthcare Practice,3877 Utah Drive SE,SUITE 277,Washington,D.C.,20238,Noisy,Provider
2959901540,Urgent Care Wellness Center,9 Mifflin Lane SE,,Washington,D.C.,20059,Noisy,Provider
2327771610,Dr. Waring Dri,8 Coolidge Parkway SE,,Washington,D.C.,20002,Noisy,Provider
1279156775,Ophtalmology Physician Group,3962 Hauk Place SE,SUITE 335,Washington,D.C.,20471,Noisy,Provider
1887313086,Neurological Medical Center,783 Hayes Junction SE,UNIT 494,Washington,D.C.,20518,Noisy,Provider
1628960831,DC Health Center,780 Cardinal Crossing NE,UNIT 851,Washington,D.C.,20326,Noisy,Provider
2545356759,Dr. Daniele Dossettor,42205 Eliot Street SW,,Washington,D.C.,20399,Noisy,Provider
2782372574,Physical Medicine and Rehabilitation Medical Center,56751 7th Point NE,UNIT 204,Washington,D.C.,20073,Noisy,Provider
1913956489,Dr. Desirae Pulster,0 Mendota Pass SE,,Washington,D.C.,20571,Noisy,Provider
2961751758,Allergy and Immunology Medical Associates,202 5th Pass NE,UNIT 266,Washington,D.C.,20233,Noisy,Provider
1528148754,Urgent Care Healthcare Clinic,198 Michigan Drive SE,,Washington,D.C.,20469,Noisy,Provider
1787497979,Dr. Olva Vasin,894 Anhalt Parkway NW,SUITE 426,Washington,D.C.,20162,Noisy,Provider
2548433057,Dr. Lorraine Broinlich,49 Southridge Road SE,,Washington,D.C.,20500,Noisy,Provider
1077800489,Internal Medicine Health Group,9 Fuller Parkway SE,,Washington,D.C.,20527,Noisy,Provider
2307428692,DC Wellness Clinic,06 Green Avenue NW,UNIT 448,Washington,D.C.,20511,Noisy,Provider
1238951889,Internal Medicine Healthcare Clinic,81923 Schmedeman Center NW,,Washington,D.C.,20381,Noisy,Provider
2514721656,Dr. Cyndie Lowe,9 Almo Center NE,SUITE 133,Washington,D.C.,20293,Noisy,Provider
1436494747,Dr. Dyna Starten,382 Jackson Circle SW,,Washington,D.C.,20292,Noisy,Provider
1667050329,Dr. Winnie Kingh,943 Muir Alley NW,,Washington,D.C.,20030,Noisy,Provider
1083605544,Dr. Darell Pegg,69351 Scoville Place SE,UNIT 238,Washington,D.C.,20200,Noisy,Provider
2430683790,Ophtalmology Physician Associates,8418 Monument Street NE,,Washington,D.C.,20059,Noisy,Provider
1165973119,Dr. Hamish Brumble,57053 Hoffman Place SW,UNIT 199,Washington,D.C.,20450,Noisy,Provider
2017852699,Dr. Ham Jindrak,1048 Artisan Trail SW,SUITE 907,Washington,D.C.,20344,Noisy,Provider
1854030416,Dr. Holli Segar,116 Anderson Parkway SW,UNIT 442,Washington,D.C.,20250,Noisy,Provider
2273046033,Orthopaedic Healthcare Group,7 Chinook Avenue SE,SUITE 741,Washington,D.C.,20309,Noisy,Provider
1315969002,Dental Health Practice,5 Sutteridge Way NW,SUITE 459,Washington,D.C.,20359,Noisy,Provider
2768244610,Dr. Morgan Kohtler,9746 Graceland Park SE,UNIT 127,Washington,D.C.,20316,Noisy,Provider
2751767857,Dr. Tandy Spruce,336 Independence Point SW,,Washington,D.C.,20424,Noisy,Provider
1075215877,Dr. Hilda Craine,02339 Gulseth Road NW,UNIT 705,Washington,D.C.,20326,Noisy,Provider
2406534206,Preventive Care Health Associates,6 Monument Court NW,,Washington,D.C.,20284,Noisy,Provider
1696480453,Dr. Ursola Germon,4 Debra Lane NE,,Washington,D.C.,20469,Noisy,Provider
1835121284,Dental Healthcare Center,31939 Marcy Pass NE,SUITE 255,Washington,D.C.,20127,Noisy,Provider
2200346196,Dr. Ferne Konneke,3 Ohio Avenue NE,SUITE 853,Washington,D.C.,20536,Noisy,Provider
1041602866,Family Healthcare Practice,5964 Ohio Hill SW,SUITE 838,Washington,D.C.,20513,Noisy,Provider
2130499663,Dr. Far Yarnton,3374 Cambridge Avenue SW,UNIT 400,Washington,D.C.,20169,Noisy,Provider
2931113799,Colon and Rectal Health Center,9637 Mandrake Trail NE,UNIT 972,Washington,D.C.,20033,Noisy,Provider
1715904798,Dermatology Physician Associates,2 Badeau Center NW,UNIT 495,Washington,D.C.,20533,Noisy,Provider
1753612057,Dr. Nicolas Jannequin,98705 Buena Vista Trail SW,,Washington,D.C.,20456,Noisy,Provider
2901778839,Family Physician Center,7 Aberg Center NE,,Washington,D.C.,20456,Noisy,Provider
2895080273,Internal Medicine Healthcare Associates,768 Ludington Crossing SE,,Washington,D.C.,20503,Noisy,Provider
1483077485,Psychiatric Medical Center,97 Gale Parkway NE,UNIT 777,Washington,D.C.,20593,Noisy,Provider
1959871750,Dr. Denney McCorry,1 Tomscot Point SW,UNIT 721,Washington,D.C.,20504,Noisy,Provider
2219878959,Dr. Monti Ollett,63 Pleasure Pass SE,,Washington,D.C.,20193,Noisy,Provider
1767666923,Physical Medicine and Rehabilitation Medical Clinic,5 Bay Lane SW,SUITE 458,Washington,D.C.,20195,Noisy,Provider
2811354980,Internal Medicine Wellness Associates,0 Farragut Court SW,SUITE 962,Washington,D.C.,20274,Noisy,Provider
2597647538,Dr. Andy Skokoe,93860 7th Hill SE,SUITE 396,Washington,D.C.,20353,Noisy,Provider
2733675156,Dr. Amelia Ather,53 Dovetail Junction SE,,Washington,D.C.,20128,Noisy,Provider
2195557919,Neurological Health Group,113 Schmedeman Trail SE,,Washington,D.C.,20285,Noisy,Provider
2056070042,Urgent Care Physician Center,444 Orin Hill NW,,Washington,D.C.,20413,Noisy,Provider
2332905286,Dermatology Health Center,09 Del Sol Trail NE,SUITE 808,Washington,D.C.,20145,Noisy,Provider
2364288550,Dr. Hynda Guirardin,43 Northridge Trail SE,,Washington,D.C.,20423,Noisy,Provider
1887489586,Orthopaedic Wellness Center,4674 Pine View Alley NW,,Washington,D.C.,20116,Noisy,Provider
1255940646,Ophtalmology Medical Clinic,00179 Charing Cross Place NE,,Washington,D.C.,20259,Noisy,Provider
2044160224,Dr. Wenonah Rama,259 Anzinger Way NW,UNIT 985,Washington,D.C.,20473,Noisy,Provider
2469945722,Neurological Wellness Center,27 Pawling Point SE,SUITE 442,Washington,D.C.,20544,Noisy,Provider
2612700856,Preventive Care Healthcare Center,606 Cordelia Drive NW,UNIT 897,Washington,D.C.,20239,Noisy,Provider
1098977111,Dr. Ephrem Destouche,2812 Brickson Park Center SE,SUITE 880,Washington,D.C.,20556,Noisy,Provider
2288375171,Dr. Jeanette Donovin,2418 Fordem Crossing SE,UNIT 651,Washington,D.C.,20441,Noisy,Provider
1363789705,Dermatology Physician Group,1 Gateway Junction NE,UNIT 551,Washington,D.C.,20588,Noisy,Provider
1272676265,Internal Medicine Health Group,9 Carberry Place NW,,Washington,D.C.,20138,Noisy,Provider
2137681199,Dr. Brice Viel,51398 Gerald Center NW,UNIT 750,Washington,D.C.,20430,Noisy,Provider
1439168356,Dr. Buckie Grimestone,95245 Westerfield Circle NW,UNIT 173,Washington,D.C.,20125,Noisy,Provider
1926972404,Orthopaedic Physician Practice,961 Burning Wood Circle NE,SUITE 961,Washington,D.C.,20502,Noisy,Provider
2858706938,Allergy and Immunology Wellness Associates,556 Pleasure Street NE,,Washington,D.C.,20044,Noisy,Provider
1131044786,Ophtalmology Healthcare Practice,54189 Jay Parkway SE,,Washington,D.C.,20398,Noisy,Provider
2685679255,Preventive Care Wellness Practice,91 Sommers Trail SE,UNIT 228,Washington,D.C.,20281,Noisy,Provider
2738752275,Colon and Rectal Healthcare Group,4 Superior Point SW,SUITE 898,Washington,D.C.,20535,Noisy,Provider
1042097413,Allergy and Immunology Health Associates,6 Village Green Alley NW,UNIT 340,Washington,D.C.,20421,Noisy,Provider
1912068789,Dr. Aurore Dixey,67916 Schurz Parkway SE,SUITE 103,Washington,D.C.,20352,Noisy,Provider
2791556845,Dr. Sheryl Cofax,202 Everett Center SW,SUITE 347,Washington,D.C.,20316,Noisy,Provider
1505992175,Dr. Tamarah Raynes,32963 Sundown Pass NW,,Washington,D.C.,20381,Noisy,Provider
2217168588,Dr. Tisha Clough,900 Westend Court NE,SUITE 938,Washington,D.C.,20358,Noisy,Provider
1405626103,Dr. Pen Gier,46 Springview Plaza SE,,Washington,D.C.,20548,Noisy,Provider
1838513981,Preventive Care Medical Clinic,0107 Bobwhite Street SE,UNIT 759,Washington,D.C.,20187,Noisy,Provider
1754090630,Dr. Bidget Swann,52284 Forest Crossing NE,SUITE 374,Washington,D.C.,20243,Noisy,Provider
2385766009,Dermatology Wellness Group,8538 Bunker Hill Center SW,SUITE 283,Washington,D.C.,20418,Noisy,Provider
2798142482,Dr. Ranee Eicke,52392 Melby Terrace SW,SUITE 782,Washington,D.C.,20383,Noisy,Provider
1827548851,Allergy and Immunology Wellness Clinic,82 Cherokee Crossing SW,UNIT 179,Washington,D.C.,20295,Noisy,Provider
2576677007,Allergy and Immunology Wellness Associates,022 Cody Street SW,,Washington,D.C.,20060,Noisy,Provider
1570386067,Dr. Benni Rummery,8 Westport Parkway SE,,Washington,D.C.,20201,Noisy,Provider
2191511588,Dental Health Group,08 Merchant Terrace SW,UNIT 367,Washington,D.C.,20563,Noisy,Provider
2624831924,Dr. Abran McCrackan,0924 Delladonna Circle SE,,Washington,D.C.,20224,Noisy,Provider
2513464885,Dr. Juana Critcher,16618 Steensland Junction SE,SUITE 941,Washington,D.C.,20127,Noisy,Provider
1267020298,Colon and Rectal Wellness Clinic,612 Sachtjen Point SE,,Washington,D.C.,20406,Noisy,Provider
2450784373,Dr. Shel Dowe,26 Arizona Point SE,SUITE 491,Washington,D.C.,20576,Noisy,Provider
1758437897,Dr. Alford Orht,32 Kings Hill SE,UNIT 677,Washington,D.C.,20380,Noisy,Provider
2645078958,Orthopaedic Medical Center,92590 Mcguire Trail SE,UNIT 928,Washington,D.C.,20533,Noisy,Provider
1461653869,Family Health Clinic,187 Darwin Junction NW,,Washington,D.C.,20091,Noisy,Provider
1352049490,Family Health Associates,85 Alpine Avenue NE,UNIT 723,Washington,D.C.,20158,Noisy,Provider
2431672233,Allergy and Immunology Healthcare Practice,3 Maple Wood Plaza NE,UNIT 912,Washington,D.C.,20208,Noisy,Provider
2741271957,Dr. Domenico McKernon,1 Farmco Hill SW,SUITE 308,Washington,D.C.,20365,Noisy,Provider
1563572525,Dr. Hillery Millwater,050 Blackbird Avenue SW,SUITE 814,Washington,D.C.,20545,Noisy,Provider
2185182125,Physical Medicine and Rehabilitation Health Practice,9 Dwight Drive NE,UNIT 545,Washington,D.C.,20094,Noisy,Provider
1106008690,Dr. Shae Hensmans,29 Elgar Drive SE,,Washington,D.C.,20235,Noisy,Provider
2025361707,Dr. Lynn Gane,8 Goodland Park NW,SUITE 984,Washington,D.C.,20576,Noisy,Provider
1054075131,Dr. Melantha Archbold,1431 Hermina Court NE,SUITE 732,Washington,D.C.,20367,Noisy,Provider
1762618533,Dr. Dietrich Missen,7191 Bluejay Way SW,UNIT 488,Washington,D.C.,20217,Noisy,Provider
2521136884,Family Healthcare Associates,9 Meadow Vale Place NE,,Washington,D.C.,20464,Noisy,Provider
2453849346,Dr. Jarvis Strank,3 Loeprich Lane SW,UNIT 278,Washington,D.C.,20202,Noisy,Provider
1544020020,Internal Medicine Medical Practice,03961 Northview Lane SW,UNIT 628,Washington,D.C.,20432,Noisy,Provider
1435241305,Dr. Prince McCane,295 Esker Pass SE,UNIT 958,Washington,D.C.,20107,Noisy,Provider
1196078143,Preventive Care Wellness Clinic,01843 Sloan Point SE,UNIT 791,Washington,D.C.,20404,Noisy,Provider
1645591379,Dental Physician Associates,88 Johnson Court NW,SUITE 400,Washington,D.C.,20187,Noisy,Provider
1953648838,Dr. Gearard Mingo,43873 Alpine Road NE,SUITE 711,Washington,D.C.,20062,Noisy,Provider
1098332724,Preventive Care Wellness Clinic,476 Aberg Junction NE,UNIT 960,Washington,D.C.,20280,Noisy,Provider
1547392745,Dr. Evangelina Loughead,15799 Macpherson Street NE,UNIT 989,Washington,D.C.,20585,Noisy,Provider
2473098444,Dr. Waverly Augur,18 David Point NE,UNIT 795,Washington,D.C.,20010,Noisy,Provider
1306619093,Dr. Carley Izkovicz,1817 Dawn Crossing NE,,Washington,D.C.,20307,Noisy,Provider
2878331767,Dr. Tracey Keeffe,7 Northwestern Center SW,,Washington,D.C.,20509,Noisy,Provider
1832688722,Dental Wellness Practice,1198 Dexter Junction NE,UNIT 350,Washington,D.C.,20564,Noisy,Provider
2267803119,Dermatology Medical Group,5206 Clyde Gallagher Pass SW,,Washington,D.C.,20280,Noisy,Provider
2585541409,Allergy and Immunology Healthcare Practice,9533 Mendota Way NW,UNIT 708,Washington,D.C.,20043,Noisy,Provider
2672396422,DC Wellness Group,4 Lyons Hill NW,,Washington,D.C.,20526,Noisy,Provider
2869218657,Dr. Ester Hearne,85 Union Parkway SE,,Washington,D.C.,20304,Noisy,Provider
1299980412,Dr. Xavier Moggan,80533 Mariners Cove Lane SE,UNIT 825,Washington,D.C.,20250,Noisy,Provider
2441962202,Dr. Alex Thunderchief,17792 Rockefeller Park NW,UNIT 502,Washington,D.C.,20325,Noisy,Provider
1671349266,Dr. Ruthie Jewks,8185 Ryan Hill SW,SUITE 195,Washington,D.C.,20513,Noisy,Provider
2402482926,Dr. Osmund MacNair,7411 Sachs Junction NW,,Washington,D.C.,20038,Noisy,Provider
2270024712,Internal Medicine Healthcare Clinic,3 Granby Way SW,UNIT 629,Washington,D.C.,20364,Noisy,Provider
1347464316,Dr. Michaella Vecard,737 Beilfuss Park NE,,Washington,D.C.,20137,Noisy,Provider
1447841615,DC Health Associates,9151 East Parkway NW,SUITE 912,Washington,D.C.,20413,Noisy,Provider
2257289774,Dr. Faustina Ruddy,9 Ryan Center NE,,Washington,D.C.,20309,Noisy,Provider
2928062649,Preventive Care Wellness Clinic,615 Holy Cross Plaza SW,UNIT 171,Washington,D.C.,20598,Noisy,Provider
1359915423,Allergy and Immunology Wellness Group,9 Sachs Crossing NW,,Washington,D.C.,20154,Noisy,Provider
2973333944,Dr. Bellina Stanaway,215 Judy Road SE,,Washington,D.C.,20315,Noisy,Provider
2079640243,Allergy and Immunology Health Group,07 Pennsylvania Hill SW,SUITE 847,Washington,D.C.,20305,Noisy,Provider
2383179456,Dr. Lura Bunch,668 Commercial Plaza SE,,Washington,D.C.,20137,Noisy,Provider
2303313574,Dr. Jessamyn Lavallin,556 3rd Trail NE,SUITE 602,Washington,D.C.,20565,Noisy,Provider
2818399428,Orthopaedic Wellness Clinic,0823 Moulton Road SE,SUITE 678,Washington,D.C.,20031,Noisy,Provider
2297473470,Dr. Gertie Crocombe,09478 Independence Lane NE,UNIT 169,Washington,D.C.,20229,Noisy,Provider
1019843455,Dr. Kathie Cardon,389 Fair Oaks Park SE,UNIT 418,Washington,D.C.,20590,Noisy,Provider
2222560617,Physical Medicine and Rehabilitation Wellness Practice,94452 Mesta Way NW,SUITE 284,Washington,D.C.,20245,Noisy,Provider
2471049052,Dr. Cornie Bernardeau,2 Saint Paul Circle NE,,Washington,D.C.,20272,Noisy,Provider
1166491738,Urgent Care Health Clinic,4 Dwight Terrace NW,SUITE 186,Washington,D.C.,20225,Noisy,Provider
1735895929,Dr. Averill Fernley,869 Barnett Road SE,UNIT 103,Washington,D.C.,20323,Noisy,Provider
1088650289,Family Medical Group,8827 Ruskin Way SW,SUITE 545,Washington,D.C.,20016,Noisy,Provider
2355906837,Dr. Lorena Borell,7795 Longview Pass NE,,Washington,D.C.,20099,Noisy,Provider
1149815883,Dr. Aprilette Antonsson,26 Prairieview Court SW,SUITE 166,Washington,D.C.,20299,Noisy,Provider
1508651153,Orthopaedic Health Clinic,103 Shasta Point SW,,Washington,D.C.,20196,Noisy,Provider
2048700966,Allergy and Immunology Health Associates,27 Helena Center NW,SUITE 814,Washington,D.C.,20282,Noisy,Provider
1579094758,Dr. Clive Diess,215 Weeping Birch Avenue SE,UNIT 176,Washington,D.C.,20306,Noisy,Provider
2523768167,Psychiatric Medical Associates,0 Knutson Hill NE,UNIT 594,Washington,D.C.,20096,Noisy,Provider
1830415310,Physical Medicine and Rehabilitation Physician Center,698 Lyons Street NW,UNIT 534,Washington,D.C.,20372,Noisy,Provider
1198094004,Neurological Wellness Associates,17818 Kim Street SE,,Washington,D.C.,20472,Noisy,Provider
2060504802,Dr. Huntley Bosche,93345 Del Mar Plaza NE,UNIT 231,Washington,D.C.,20596,Noisy,Provider
2128194113,Dental Medical Group,8534 Susan Crossing NE,,Washington,D.C.,20488,Noisy,Provider
2086357455,Dr. Daphne Rutter,82 Crowley Alley NW,UNIT 944,Washington,D.C.,20472,Noisy,Provider
2888364359,Ophtalmology Medical Practice,8343 Hooker Street NE,,Washington,D.C.,20099,Noisy,Provider
1177893416,Dr. Valle Madsen,423 Ilene Avenue NW,UNIT 827,Washington,D.C.,20199,Noisy,Provider
2404345128,Dr. Alistair Spataro,3 Badeau Parkway NW,SUITE 971,Washington,D.C.,20032,Noisy,Provider
1668988533,Dr. Charmian Lanham,70 Mayer Junction NE,UNIT 562,Washington,D.C.,20321,Noisy,Provider
1750874292,Dr. Guido Munkley,30 Holmberg Pass NW,SUITE 156,Washington,D.C.,20261,Noisy,Provider
1071948355,Dr. Westley Siseland,21821 Summerview Court SW,,Washington,D.C.,20362,Noisy,Provider
1695812416,Internal Medicine Wellness Group,89099 Utah Point NW,SUITE 471,Washington,D.C.,20098,Noisy,Provider
1956965435,Dr. Blondelle Olczyk,7 Arkansas Point SW,SUITE 860,Washington,D.C.,20479,Noisy,Provider
2552947741,Dermatology Health Group,7761 Drewry Hill NE,UNIT 975,Washington,D.C.,20049,Noisy,Provider
2338738945,Dr. Moshe Dayborne,9 Goodland Pass NE,UNIT 155,Washington,D.C.,20380,Noisy,Provider
1845736598,Dr. Barbie Dimmock,63 Moland Street SE,SUITE 457,Washington,D.C.,20251,Noisy,Provider
1280027357,Dr. Elsworth Peplaw,1302 Thierer Center NW,SUITE 764,Washington,D.C.,20531,Noisy,Provider
1183945638,Dr. Eyde Nezey,21592 Sunnyside Parkway SE,,Washington,D.C.,20090,Noisy,Provider
1275980283,Allergy and Immunology Wellness Group,08913 Pepper Wood Drive NW,,Washington,D.C.,20069,Noisy,Provider
2534368042,Psychiatric Physician Center,84773 Heath Pass SE,UNIT 944,Washington,D.C.,20181,Noisy,Provider
1213358801,Physical Medicine and Rehabilitation Wellness Practice,87294 7th Junction SE,,Washington,D.C.,20489,Noisy,Provider
1944059432,Dr. Emmett Robert,64 Lukken Road SE,SUITE 601,Washington,D.C.,20163,Noisy,Provider
2025692589,Ophtalmology Physician Center,4 Sachs Trail SE,SUITE 487,Washington,D.C.,20368,Noisy,Provider
2186617183,Dermatology Wellness Group,96971 Westend Court SW,,Washington,D.C.,20066,Noisy,Provider
2644647475,Dr. Martie Coste,98106 Ramsey Court SE,,Washington,D.C.,20260,Noisy,Provider
2549263101,Dr. Douglas Heyworth,3 Vernon Alley NE,UNIT 230,Washington,D.C.,20561,Noisy,Provider
2142074782,Dr. Berta Gabits,15969 Buhler Park SW,,Washington,D.C.,20120,Noisy,Provider
2210453902,Neurological Wellness Center,1 Ruskin Hill NE,UNIT 968,Washington,D.C.,20472,Noisy,Provider
2463832971,Dr. Wells Wardingley,0 Lyons Street NE,,Washington,D.C.,20554,Noisy,Provider
1446511763,DC Physician Associates,7160 Steensland Center NE,UNIT 490,Washington,D.C.,20052,Noisy,Provider
1983170415,Dental Healthcare Group,13 Caliangt Drive SE,,Washington,D.C.,20341,Noisy,Provider
1099634791,Dr. Damiano Falconer-Taylor,676 Debra Street SW,SUITE 659,Washington,D.C.,20531,Noisy,Provider
1621442344,Internal Medicine Healthcare Clinic,66906 Sheridan Junction NE,UNIT 572,Washington,D.C.,20549,Noisy,Provider
2438064460,Psychiatric Healthcare Clinic,071 Grayhawk Junction SW,SUITE 506,Washington,D.C.,20365,Noisy,Provider
1269506386,Orthopaedic Health Practice,47484 Karstens Avenue NE,UNIT 399,Washington,D.C.,20139,Noisy,Provider
2309573641,Dr. Ramsay Fever,25277 Straubel Trail SW,,Washington,D.C.,20359,Noisy,Provider
1957950643,Dr. Reine Lamborn,59 Milwaukee Trail NW,SUITE 908,Washington,D.C.,20159,Noisy,Provider
1050065750,Dr. Rosanne Heazel,47 Almo Point SE,,Washington,D.C.,20366,Noisy,Provider
1615219885,Urgent Care Physician Associates,03 Northview Court NE,,Washington,D.C.,20297,Noisy,Provider
1999315382,Dr. Aggie Mecchi,40 Stang Lane NE,SUITE 238,Washington,D.C.,20557,Noisy,Provider
1969732087,Dr. Audrey Swyre,529 Hayes Junction NW,UNIT 375,Washington,D.C.,20575,Noisy,Provider
2165307803,Dr. Wylma Wem,2 Gulseth Junction SW,,Washington,D.C.,20097,Noisy,Provider
1073906905,Dr. Reta Mayte,98665 Northland Crossing NE,SUITE 651,Washington,D.C.,20228,Noisy,Provider
1536645116,Neurological Physician Practice,400 Darwin Circle NW,SUITE 148,Washington,D.C.,20198,Noisy,Provider
1817563548,Dr. Franzen Pounder,9670 Lakewood Gardens Circle NE,,Washington,D.C.,20516,Noisy,Provider
1644135867,Dr. Kellby Sabban,1 Katie Court SE,UNIT 181,Washington,D.C.,20412,Noisy,Provider
2239661237,Urgent Care Medical Associates,78 Moose Road NW,,Washington,D.C.,20187,Noisy,Provider
1500987511,Dr. Gayla Haller,08 Forest Run Street NE,,Washington,D.C.,20527,Noisy,Provider
1561800289,Physical Medicine and Rehabilitation Health Group,71851 Memorial Park NE,,Washington,D.C.,20288,Noisy,Provider
2639650045,Dr. Harland Albasiny,55 Ronald Regan Trail NE,,Washington,D.C.,20595,Noisy,Provider
2448702682,Dr. Cleon Seson,4 2nd Alley SW,UNIT 471,Washington,D.C.,20019,Noisy,Provider
2118035042,Colon and Rectal Wellness Associates,90 Spohn Circle SE,SUITE 734,Washington,D.C.,20194,Noisy,Provider
1107375977,Dr. Carmelita Magne,9740 Surrey Court NE,SUITE 712,Washington,D.C.,20223,Noisy,Provider
2140875585,Dr. Marleen Gynne,571 Luster Way SE,SUITE 609,Washington,D.C.,20359,Noisy,Provider
1844327577,Dr. Virgina Magson,1528 Springs Place SW,SUITE 775,Washington,D.C.,20415,Noisy,Provider
1889068300,Ophtalmology Health Center,94 Moland Hill NW,,Washington,D.C.,20511,Noisy,Provider
2010668089,Ophtalmology Wellness Group,068 Arizona Parkway NW,SUITE 762,Washington,D.C.,20319,Noisy,Provider
2834347033,Dr. Nady Cowin,57 Stuart Alley NE,,Washington,D.C.,20297,Noisy,Provider
2636771465,Dr. Gill Keer,09019 8th Lane SW,UNIT 555,Washington,D.C.,20527,Noisy,Provider
2313880335,Dr. Loralie Pimlock,9243 Hansons Avenue NE,SUITE 801,Washington,D.C.,20239,Noisy,Provider
1724176654,Dr. Lev Unsworth,10 Waywood Plaza SW,,Washington,D.C.,20321,Noisy,Provider
2728767271,Physical Medicine and Rehabilitation Healthcare Practice,3401 Crownhardt Street NW,UNIT 889,Washington,D.C.,20289,Noisy,Provider
2094738095,Psychiatric Health Clinic,25461 Continental Point NW,,Washington,D.C.,20428,Noisy,Provider
2695416784,Internal Medicine Health Practice,799 Almo Parkway NW,,Washington,D.C.,20351,Noisy,Provider
1492110914,Dr. Elicia Bingell,6987 Aberg Hill SW,SUITE 324,Washington,D.C.,20498,Noisy,Provider
2915333482,Dr. Barnett Landers,57 Forster Lane NE,,Washington,D.C.,20530,Noisy,Provider
1716178467,Urgent Care Healthcare Associates,4228 Rieder Point SE,UNIT 676,Washington,D.C.,20079,Noisy,Provider
1678727409,Dental Healthcare Clinic,74 Arkansas Pass NE,UNIT 609,Washington,D.C.,20500,Noisy,Provider
2186844962,Family Healthcare Clinic,8921 Fallview Hill SE,,Washington,D.C.,20027,Noisy,Provider
2989847651,Dr. Laurena Leary,899 Lighthouse Bay Terrace NW,,Washington,D.C.,20290,Noisy,Provider
2411725584,Family Physician Group,221 Sheridan Lane SW,UNIT 470,Washington,D.C.,20386,Noisy,Provider
1151237694,Dr. Alfy Klug,25 Pankratz Crossing NW,UNIT 422,Washington,D.C.,20415,Noisy,Provider
1162734529,Dr. Odey Whelpdale,95420 Service Terrace NE,,Washington,D.C.,20567,Noisy,Provider
1946490737,Dr. Malanie Stango,77932 Crest Line Crossing NW,SUITE 208,Washington,D.C.,20389,Noisy,Provider
2249184506,Orthopaedic Health Practice,067 Helena Avenue SW,,Washington,D.C.,20397,Noisy,Provider
1272928686,Dr. Torry Danilchev,0878 Fair Oaks Drive SW,SUITE 613,Washington,D.C.,20483,Noisy,Provider
1073762689,Urgent Care Health Group,111 Duke Court NW,UNIT 591,Washington,D.C.,20348,Noisy,Provider
2566393291,Dr. Zena Strong,75444 John Wall Circle NE,SUITE 841,Washington,D.C.,20316,Noisy,Provider
1185303181,Dr. Cary Sail,5 Hauk Hill NW,,Washington,D.C.,20422,Noisy,Provider
2926299964,Colon and Rectal Healthcare Clinic,24067 Chive Trail SE,SUITE 566,Washington,D.C.,20097,Noisy,Provider
2598597000,Dr. Rene Curtiss,2 Roth Lane NW,,Washington,D.C.,20121,Noisy,Provider
1717034726,Dr. Dave Southward,08 Sherman Center NW,,Washington,D.C.,20195,Noisy,Provider
1095664278,Dr. Ralina McJury,50 Del Sol Road NW,UNIT 277,Washington,D.C.,20407,Noisy,Provider
2650715834,Psychiatric Health Center,38 Lunder Drive NE,SUITE 806,Washington,D.C.,20287,Noisy,Provider
2534810651,Urgent Care Physician Practice,46102 Magdeline Park NE,,Washington,D.C.,20086,Noisy,Provider
2225107335,Colon and Rectal Wellness Associates,3 Debs Point SW,,Washington,D.C.,20404,Noisy,Provider
1046225208,Dr. Morna Grinaugh,189 Gina Pass NE,SUITE 826,Washington,D.C.,20151,Noisy,Provider
2507588939,Physical Medicine and Rehabilitation Wellness Center,69 Arrowood Street NE,UNIT 733,Washington,D.C.,20163,Noisy,Provider
2522793458,Orthopaedic Physician Group,854 Lillian Circle NW,,Washington,D.C.,20084,Noisy,Provider
2641611344,Family Physician Practice,0110 Chinook Place SW,,Washington,D.C.,20073,Noisy,Provider
2769579595,Dr. Ailsun Medgwick,11207 Summerview Point SE,UNIT 750,Washington,D.C.,20464,Noisy,Provider
1036820419,Dr. Imogen Lawleff,337 Pepper Wood Place NE,SUITE 947,Washington,D.C.,20037,Noisy,Provider
2891847612,Preventive Care Healthcare Group,74 Weeping Birch Lane SE,,Washington,D.C.,20365,Noisy,Provider
1709002226,Family Wellness Group,391 North Terrace NW,,Washington,D.C.,20205,Noisy,Provider
2622223668,Dr. Ginni Culshew,1 Hanover Place SE,,Washington,D.C.,20237,Noisy,Provider
2289887720,Dr. Marten Seifert,53 Redwing Plaza NW,,Washington,D.C.,20480,Noisy,Provider
2243274787,Preventive Care Healthcare Clinic,5498 Chinook Parkway SE,,Washington,D.C.,20033,Noisy,Provider
2460873995,Dr. Michele Mayhow,8630 Golden Leaf Hill NW,,Washington,D.C.,20505,Noisy,Provider
2751616563,Preventive Care Physician Associates,82333 Orin Circle NE,,Washington,D.C.,20384,Noisy,Provider
1639551104,Allergy and Immunology Healthcare Center,29100 Raven Hill NW,UNIT 483,Washington,D.C.,20283,Noisy,Provider
1076511490,Dr. Laurella Westell,11234 Prairieview Junction SW,,Washington,D.C.,20114,Noisy,Provider
1803447782,Dental Physician Associates,331 Talisman Park NW,SUITE 458,Washington,D.C.,20023,Noisy,Provider
1148794699,Dr. Cloe Paulo,688 Talisman Avenue NE,,Washington,D.C.,20158,Noisy,Provider
1981442624,Dr. Skylar MacRirie,6953 Mosinee Plaza NW,UNIT 132,Washington,D.C.,20326,Noisy,Provider
2106265742,Allergy and Immunology Health Group,0 Waxwing Trail SW,,Washington,D.C.,20457,Noisy,Provider
2124352781,Dr. Codie Emmison,64299 Oneill Lane SE,,Washington,D.C.,20576,Noisy,Provider
2674327478,Allergy and Immunology Health Center,53212 Bultman Parkway SW,,Washington,D.C.,20070,Noisy,Provider
2172415478,Dr. Lavinie Showler,83590 Morning Court NE,SUITE 636,Washington,D.C.,20483,Noisy,Provider
1743578366,Dr. Giffer Cowdery,7 Bobwhite Lane SW,UNIT 467,Washington,D.C.,20285,Noisy,Provider
1131288699,Dr. Mathew Fenby,463 Laurel Lane NW,,Washington,D.C.,20063,Noisy,Provider
2820969403,Dr. Cordy Domingues,19 Buhler Place SW,UNIT 742,Washington,D.C.,20054,Noisy,Provider
1426148202,Dental Health Associates,0 Warrior Place SE,,Washington,D.C.,20219,Noisy,Provider
1388409400,Dr. Tibold Murrell,98949 Crownhardt Alley SW,SUITE 264,Washington,D.C.,20526,Noisy,Provider
1424949726,Family Physician Associates,0980 Thackeray Alley SW,,Washington,D.C.,20508,Noisy,Provider
1241180739,Dr. Carma Brereton,114 Vahlen Pass NW,,Washington,D.C.,20473,Noisy,Provider
1932885079,Dental Health Clinic,05825 Ruskin Alley NE,,Washington,D.C.,20582,Noisy,Provider
2278535101,Dr. Rhiamon Chesters,2607 Golf View Alley NE,SUITE 496,Washington,D.C.,20208,Noisy,Provider
2006446248,Physical Medicine and Rehabilitation Healthcare Clinic,24381 Surrey Avenue NW,UNIT 718,Washington,D.C.,20226,Noisy,Provider
1436094369,Dr. Maressa Coger,36513 Stuart Avenue SW,,Washington,D.C.,20244,Noisy,Provider
1030894082,Orthopaedic Healthcare Group,81 Meadow Ridge Parkway SE,SUITE 750,Washington,D.C.,20481,Noisy,Provider
2286034244,Dr. Fran Hinrichsen,05 Summit Crossing SE,,Washington,D.C.,20568,Noisy,Provider
1271929877,Dr. Osbourn Larkby,49436 Florence Plaza SE,,Washington,D.C.,20094,Noisy,Provider
2450255495,Internal Medicine Physician Center,6 Ludington Parkway SW,,Washington,D.C.,20073,Noisy,Provider
1030698705,Family Health Center,75 Columbus Plaza SW,UNIT 817,Washington,D.C.,20561,Noisy,Provider
1211408011,Internal Medicine Wellness Group,03 Toban Alley NW,SUITE 624,Washington,D.C.,20182,Noisy,Provider
2774883014,Colon and Rectal Health Clinic,96 Charing Cross Junction SE,SUITE 243,Washington,D.C.,20222,Noisy,Provider
2749404002,Dr. Edie Gummary,87 International Point SE,SUITE 411,Washington,D.C.,20133,Noisy,Provider
1203031822,DC Healthcare Practice,94 Hermina Terrace NW,,Washington,D.C.,20449,Noisy,Provider
1253799527,Urgent Care Health Center,9 Sheridan Trail NW,UNIT 365,Washington,D.C.,20163,Noisy,Provider
2386037163,Neurological Healthcare Group,728 Buena Vista Plaza SE,,Washington,D.C.,20269,Noisy,Provider
2808211742,Family Physician Clinic,97 Lillian Crossing SW,SUITE 732,Washington,D.C.,20584,Noisy,Provider
2435333155,Psychiatric Healthcare Associates,059 Lindbergh Park NE,,Washington,D.C.,20416,Noisy,Provider
1188452946,Dr. Hatty Desporte,0 Straubel Drive SW,,Washington,D.C.,20179,Noisy,Provider
2924452984,Urgent Care Physician Associates,9 Continental Hill SW,UNIT 198,Washington,D.C.,20163,Noisy,Provider
1967483221,Dr. Ange De Morena,7 Brown Street NE,UNIT 343,Washington,D.C.,20582,Noisy,Provider
1430977979,Internal Medicine Wellness Group,75 Scofield Way SE,SUITE 769,Washington,D.C.,20234,Noisy,Provider
2908674299,Ophtalmology Medical Group,11 American Ash Road NE,,Washington,D.C.,20489,Noisy,Provider
2933129018,Preventive Care Health Associates,659 Merry Way SE,,Washington,D.C.,20088,Noisy,Provider
2883222015,Dr. Wendye Isgate,805 Hollow Ridge Alley SW,UNIT 955,Washington,D.C.,20125,Noisy,Provider
1053020677,Ophtalmology Wellness Center,195 Walton Road SE,SUITE 758,Washington,D.C.,20389,Noisy,Provider
2122739219,Dr. Melina Stockwell,91160 Merrick Lane NW,SUITE 800,Washington,D.C.,20408,Noisy,Provider
2919199418,Dr. Quintina De'Ath,8947 Hansons Crossing NE,UNIT 794,Washington,D.C.,20375,Noisy,Provider
1756114187,Family Health Clinic,9 Sugar Alley SW,SUITE 512,Washington,D.C.,20541,Noisy,Provider
2767364731,Psychiatric Wellness Associates,46593 Village Avenue NE,UNIT 503,Washington,D.C.,20325,Noisy,Provider
1518834442,Ophtalmology Wellness Clinic,0721 Melby Avenue NE,SUITE 232,Washington,D.C.,20198,Noisy,Provider
2425912215,Dr. Pavel Whyler,407 Troy Way SW,,Washington,D.C.,20564,Noisy,Provider
1058406627,Dr. Reinaldo Lafford,48637 Leroy Plaza SE,SUITE 383,Washington,D.C.,20395,Noisy,Provider
1535937344,Dr. Lemar Isaaksohn,368 Service Alley SE,,Washington,D.C.,20457,Noisy,Provider
1772914135,Dr. Tabina Lewins,2830 Tennessee Road NW,UNIT 629,Washington,D.C.,20277,Noisy,Provider
1789345822,Neurological Health Group,31 Barnett Terrace NE,SUITE 922,Washington,D.C.,20193,Noisy,Provider
1647287417,Allergy and Immunology Health Center,875 Beilfuss Crossing SW,UNIT 462,Washington,D.C.,20382,Noisy,Provider
2116252458,Dr. Siegfried Rhodef,96 Cardinal Terrace NE,SUITE 226,Washington,D.C.,20116,Noisy,Provider
2817664485,Dr. Gerek Dillintone,51280 Pierstorff Court SW,UNIT 598,Washington,D.C.,20576,Noisy,Provider
2916733232,Dr. Yves Chmarny,73437 Rutledge Center NW,,Washington,D.C.,20048,Noisy,Provider
1287038625,Dr. Roslyn Copelli,4 Lunder Plaza NW,,Washington,D.C.,20019,Noisy,Provider
2247823753,Family Wellness Center,8 Drewry Place NE,UNIT 481,Washington,D.C.,20387,Noisy,Provider
1800676488,Dr. Celie Bennitt,06166 Grim Park SW,,Washington,D.C.,20437,Noisy,Provider
2326619454,Dr. Wenda Szymaniak,748 Corben Lane SE,SUITE 749,Washington,D.C.,20313,Noisy,Provider
2475666932,Dr. Nerte Wetherick,0374 Golf Point NW,UNIT 170,Washington,D.C.,20577,Noisy,Provider
2723058746,Dermatology Healthcare Practice,35 5th Park NW,,Washington,D.C.,20544,Noisy,Provider
2471956875,Dr. Merwyn Hurley,1 Lerdahl Alley SW,SUITE 435,Washington,D.C.,20026,Noisy,Provider
1546953484,Dr. Donetta Antonelli,7 Claremont Circle SW,SUITE 235,Washington,D.C.,20010,Noisy,Provider
1313505549,Dr. Augustin Caughte,4 Manitowish Hill NE,SUITE 606,Washington,D.C.,20283,Noisy,Provider
2944231928,DC Medical Group,299 Lawn Park SW,SUITE 166,Washington,D.C.,20171,Noisy,Provider
1555365532,Dr. Kizzee Elloit,3599 Lotheville Point NW,,Washington,D.C.,20072,Noisy,Provider
2561391815,DC Healthcare Clinic,1 Lake View Point SW,SUITE 423,Washington,D.C.,20044,Noisy,Provider
1272205643,Dr. Luis Finlator,84376 Algoma Center SE,SUITE 438,Washington,D.C.,20213,Noisy,Provider
1353544955,Dr. Davina Killner,46 Alpine Plaza NW,,Washington,D.C.,20095,Noisy,Provider
2612952832,Dr. Sarina Burborough,9 Harper Plaza NW,SUITE 149,Washington,D.C.,20380,Noisy,Provider
1408687649,Dr. Traver Whistlecraft,35519 Morning Street SW,,Washington,D.C.,20223,Noisy,Provider
2642174415,Dental Medical Practice,29576 Cottonwood Place SE,SUITE 983,Washington,D.C.,20387,Noisy,Provider
1397193174,Neurological Healthcare Practice,1062 Hooker Avenue SW,UNIT 975,Washington,D.C.,20460,Noisy,Provider
2676437585,Dental Physician Practice,72715 Sycamore Crossing SE,,Washington,D.C.,20144,Noisy,Provider
2510023905,Dr. Kippie Packington,8 Mcbride Alley NE,SUITE 676,Washington,D.C.,20083,Noisy,Provider
2585766788,Ophtalmology Wellness Associates,2 Schmedeman Center NW,,Washington,D.C.,20451,Noisy,Provider
1467620401,Dr. Graham Garthside,09 Browning Avenue SW,UNIT 814,Washington,D.C.,20528,Noisy,Provider
1029356514,Dr. Derrek Humbee,8 Westend Hill SW,,Washington,D.C.,20236,Noisy,Provider
2724641751,Dr. Costa Espada,7 Sage Circle SW,UNIT 515,Washington,D.C.,20048,Noisy,Provider
2615208976,Urgent Care Health Practice,35584 Reindahl Plaza SE,SUITE 263,Washington,D.C.,20465,Noisy,Provider
1032705064,Dr. Kile Bollin,66015 Logan Terrace SE,UNIT 475,Washington,D.C.,20515,Noisy,Provider
2449637219,Ophtalmology Medical Clinic,186 Raven Place SE,SUITE 803,Washington,D.C.,20462,Noisy,Provider
1901121483,Family Healthcare Clinic,877 Shasta Hill NE,,Washington,D.C.,20237,Noisy,Provider
1254947108,Dr. Bertine Chstney,02256 Briar Crest Junction SW,,Washington,D.C.,20398,Noisy,Provider
2916606043,Dr. Mehetabel Pavelka,7 Cambridge Way SE,UNIT 960,Washington,D.C.,20265,Noisy,Provider
1688519541,Dr. Yasmin Garlett,34 Miller Terrace SE,UNIT 815,Washington,D.C.,20015,Noisy,Provider
1858659953,Dermatology Medical Practice,985 Packers Way SW,UNIT 694,Washington,D.C.,20315,Noisy,Provider
1530585760,Dr. Iseabal Fronsek,1 Dapin Parkway NE,UNIT 972,Washington,D.C.,20328,Noisy,Provider
2200237425,Dermatology Wellness Practice,9797 Schurz Road NE,SUITE 434,Washington,D.C.,20074,Noisy,Provider
1315206744,Dr. Andree De Filippis,3388 Lindbergh Crossing NW,SUITE 502,Washington,D.C.,20220,Noisy,Provider
2204179539,Orthopaedic Healthcare Center,86 Badeau Circle SW,,Washington,D.C.,20341,Noisy,Provider
2329798802,Dr. Alisa McIsaac,8 Pond Trail NW,SUITE 397,Washington,D.C.,20351,Noisy,Provider
1011357340,Internal Medicine Physician Group,1 Parkside Road NW,,Washington,D.C.,20187,Noisy,Provider
2332615846,Dr. Rosa Errett,936 Grayhawk Center NE,,Washington,D.C.,20075,Noisy,Provider
2897392852,Dr. Marthe Murray,76 Huxley Drive SE,SUITE 459,Washington,D.C.,20491,Noisy,Provider
2015846755,Preventive Care Medical Clinic,0999 Goodland Alley NW,SUITE 374,Washington,D.C.,20130,Noisy,Provider
1779516033,Dr. Dulce Cromleholme,720 Hoffman Lane SW,,Washington,D.C.,20126,Noisy,Provider
2172994551,Dental Health Center,265 Dwight Center NE,UNIT 803,Washington,D.C.,20568,Noisy,Provider
2879939352,Family Healthcare Associates,763 Doe Crossing Junction SW,,Washington,D.C.,20032,Noisy,Provider
1446951922,Psychiatric Medical Center,92 Moose Way NW,,Washington,D.C.,20438,Noisy,Provider
1721765587,Dr. Marcie Symones,7 Anthes Lane SE,SUITE 724,Washington,D.C.,20232,Noisy,Provider
1889684782,Preventive Care Healthcare Group,8 Northland Hill SE,UNIT 199,Washington,D.C.,20339,Noisy,Provider
1648761398,Dermatology Medical Associates,8091 Pine View Crossing SE,UNIT 485,Washington,D.C.,20082,Noisy,Provider
1917030797,Dr. Frederick Radbond,73 Rusk Hill SE,UNIT 430,Washington,D.C.,20156,Noisy,Provider
1923456329,Psychiatric Wellness Clinic,5429 Artisan Way NE,,Washington,D.C.,20213,Noisy,Provider
2935938558,Orthopaedic Medical Center,538 Buhler Place SE,,Washington,D.C.,20061,Noisy,Provider
1715384576,Urgent Care Physician Practice,48171 Swallow Circle NE,UNIT 526,Washington,D.C.,20002,Noisy,Provider
2528223049,Dr. Teirtza Dobkin,626 Shelley Hill NE,UNIT 682,Washington,D.C.,20247,Noisy,Provider
2172093817,Dr. Harland Brixham,71907 Laurel Junction SE,,Washington,D.C.,20503,Noisy,Provider
1245039500,Preventive Care Health Center,6090 Manitowish Way SE,,Washington,D.C.,20473,Noisy,Provider
1768288016,Dr. Irina Tuke,6 Memorial Avenue SE,SUITE 995,Washington,D.C.,20409,Noisy,Provider
1841257536,Psychiatric Wellness Group,81635 Browning Center NE,,Washington,D.C.,20524,Noisy,Provider
1733078184,DC Healthcare Practice,34934 Northland Center NW,SUITE 776,Washington,D.C.,20024,Noisy,Provider
1939334688,Allergy and Immunology Wellness Practice,47 Corry Lane NE,,Washington,D.C.,20006,Noisy,Provider
2548816053,Physical Medicine and Rehabilitation Medical Practice,9 Lakewood Crossing NW,SUITE 967,Washington,D.C.,20100,Noisy,Provider
2185094708,Preventive Care Healthcare Associates,2 Chive Lane SW,SUITE 960,Washington,D.C.,20382,Noisy,Provider
2086057102,Dr. Bella Sansbury,98460 Dayton Road NE,UNIT 756,Washington,D.C.,20115,Noisy,Provider
2451145814,Dr. Murry Lobe,03020 Ramsey Drive NE,SUITE 179,Washington,D.C.,20574,Noisy,Provider
1608926717,Dr. Kara Dantesia,4116 Texas Junction SE,UNIT 907,Washington,D.C.,20406,Noisy,Provider
2874651365,Allergy and Immunology Healthcare Clinic,227 Londonderry Way NE,SUITE 722,Washington,D.C.,20495,Noisy,Provider
2929492737,Psychiatric Health Associates,78 Westport Plaza NW,,Washington,D.C.,20562,Noisy,Provider
1271373100,Dr. Leslie Oscroft,5450 Center Parkway NW,,Washington,D.C.,20147,Noisy,Provider
1260563982,Orthopaedic Wellness Center,8 Old Shore Crossing NE,SUITE 797,Washington,D.C.,20468,Noisy,Provider
1484270743,Dr. Ferdinande Stallion,525 Pine View Crossing NE,UNIT 106,Washington,D.C.,20326,Noisy,Provider
1264567919,Dr. Fernanda Aldridge,371 School Parkway SW,UNIT 512,Washington,D.C.,20389,Noisy,Provider
2929354707,Dr. Barny Riseley,5822 High Crossing Junction SE,,Washington,D.C.,20493,Noisy,Provider
2357374437,Dental Medical Center,7340 Paget Lane SE,SUITE 743,Washington,D.C.,20198,Noisy,Provider
2131939126,Dr. Fifi Tailby,0596 Pine View Avenue SW,,Washington,D.C.,20572,Noisy,Provider
2569566718,Orthopaedic Physician Practice,996 Hudson Hill SE,SUITE 689,Washington,D.C.,20188,Noisy,Provider
1087751386,Dr. Pauly Ciciura,05229 Kensington Center NW,,Washington,D.C.,20386,Noisy,Provider
1807103730,Dermatology Health Associates,0 Pepper Wood Lane SW,SUITE 895,Washington,D.C.,20300,Noisy,Provider
1218880110,Physical Medicine and Rehabilitation Wellness Practice,88 Valley Edge Park NW,SUITE 917,Washington,D.C.,20525,Noisy,Provider
1526686657,Allergy and Immunology Physician Practice,456 Warbler Plaza NE,,Washington,D.C.,20511,Noisy,Provider
1206098823,Physical Medicine and Rehabilitation Medical Associates,19999 Stang Lane NW,,Washington,D.C.,20002,Noisy,Provider
2081572968,Dr. Franzen Stendell,2 Trailsway Alley NE,UNIT 848,Washington,D.C.,20230,Noisy,Provider
2597817733,Dr. Scarlet Bitcheno,790 Old Shore Plaza NE,UNIT 267,Washington,D.C.,20167,Noisy,Provider
1247604696,Dr. Junie Smales,07 Red Cloud Crossing SE,,Washington,D.C.,20180,Noisy,Provider
2425911584,Dr. Sharl Harce,218 Vahlen Drive NE,,Washington,D.C.,20005,Noisy,Provider
2358199175,Physical Medicine and Rehabilitation Health Center,8 Sheridan Drive NE,,Washington,D.C.,20516,Noisy,Provider
2752312339,Physical Medicine and Rehabilitation Physician Group,31925 Grasskamp Plaza NW,SUITE 965,Washington,D.C.,20203,Noisy,Provider
2566476565,Dr. Lorianna Canet,84628 Lindbergh Junction NE,UNIT 510,Washington,D.C.,20435,Noisy,Provider
1291540373,Dr. Tabbie Fissenden,8719 Arrowood Circle SW,SUITE 234,Washington,D.C.,20341,Noisy,Provider
2143020647,Preventive Care Wellness Practice,9 Old Shore Center SE,,Washington,D.C.,20001,Noisy,Provider
1159298172,Dr. Yulma Beany,936 Carpenter Parkway NE,,Washington,D.C.,20189,Noisy,Provider
2008744966,Dr. Nerissa Goodwins,6971 Lillian Court SE,SUITE 289,Washington,D.C.,20128,Noisy,Provider
2268077043,Neurological Healthcare Center,10328 Ryan Plaza NE,UNIT 986,Washington,D.C.,20305,Noisy,Provider
1024747182,Neurological Medical Associates,660 Corscot Junction SW,,Washington,D.C.,20293,Noisy,Provider
2169684897,Orthopaedic Health Group,34 Laurel Trail SE,,Washington,D.C.,20156,Noisy,Provider
1813351905,Dental Health Center,0454 Erie Plaza NE,,Washington,D.C.,20594,Noisy,Provider
2890704372,Orthopaedic Medical Clinic,94 Kropf Road NW,,Washington,D.C.,20242,Noisy,Provider
2341976760,Ophtalmology Physician Group,445 Old Shore Circle NW,,Washington,D.C.,20002,Noisy,Provider
1880031899,Dr. Neville Friel,05038 Oakridge Plaza SW,SUITE 320,Washington,D.C.,20424,Noisy,Provider
2445627337,Dermatology Wellness Associates,07946 Huxley Point SE,UNIT 694,Washington,D.C.,20352,Noisy,Provider
1303548542,Dr. Jedidiah MacFarlan,57 Continental Way SE,,Washington,D.C.,20427,Noisy,Provider
2017408833,Dr. Clint Powderham,27758 Namekagon Way SW,,Washington,D.C.,20159,Noisy,Provider
2764058650,Neurological Wellness Practice,979 Debs Pass SW,SUITE 159,Washington,D.C.,20299,Noisy,Provider
1144573158,Dr. Nellie Soutter,1133 Monica Avenue NE,,Washington,D.C.,20034,Noisy,Provider
1495564694,Psychiatric Physician Practice,4 Sloan Junction SE,SUITE 990,Washington,D.C.,20031,Noisy,Provider
2876199421,Neurological Wellness Clinic,2185 Green Park SE,,Washington,D.C.,20278,Noisy,Provider
2272657808,Dr. Ruperto Davidovici,363 Autumn Leaf Drive NE,UNIT 778,Washington,D.C.,20553,Noisy,Provider
2934102015,Dr. Lucais Done,0 Lighthouse Bay Parkway SW,,Washington,D.C.,20166,Noisy,Provider
1944293163,Dr. Ingamar Sumpner,49 Sugar Center SE,,Washington,D.C.,20114,Noisy,Provider
1888279505,DC Medical Associates,100 Cardinal Pass NE,UNIT 101,Washington,D.C.,20514,Noisy,Provider
2429481714,DC Wellness Practice,6170 Heffernan Pass NW,SUITE 200,Washington,D.C.,20450,Noisy,Provider
1597562676,Dr. Violante Hoggan,0 Carberry Lane SE,UNIT 308,Washington,D.C.,20583,Noisy,Provider
2222530643,Dr. Clarie Tottie,841 Glacier Hill Crossing NE,,Washington,D.C.,20210,Noisy,Provider
2810623947,Dr. Terra Kegg,412 Costa Rica Way NW,,Washington,D.C.,20290,HandCrafted,Provider
2951611356,Dr. Jerry Katz,736 Kendrick Street NW,,Washington,D.C.,20289,HandCrafted,Provider
1456122224,Dr. Bess Kliger,181 Logan Circle NW,,Washington,D.C.,20051,HandCrafted,Provider
1153393968,Libo Stress Relief and Wellness Center,1923 New Mexico Ave SE,,Washington,D.C.,20123,HandCrafted,Provider
